type,id,lat,lon,brand,shop,city,street,housenumber,postcode,opening_hours
node,36726161,47.2261912,8.9803292,Migros,supermarket,Uznach,Zürcherstrasse,25,8730,"Mo-Th 08:00-19:00, Fr 08:00-20:00, Sa 07:30-17:00; PH off"
node,39947904,47.3767316,8.5421608,Coop,supermarket,Zürich,Bahnhofbrücke,1,8001,Mo-Sa 06:00-22:00
node,48932835,47.37502,8.522895,Migros,supermarket,Zürich,Wengistrasse,7,8004,Mo-Sa 08:00-21:00; PH off
node,70656488,47.4918744,8.7064484,Migros,supermarket,Winterthur,Zürcherstrasse,102,8406,Mo-Fr 07:30-20:00; PH off; Sa 08:00-19:00
node,75749133,47.3409666,8.5306007,ALDI,supermarket,Zürich,Albisstrasse,81,8038,Mo-Sa 07:30-21:00
node,79977755,47.3400698,8.5305461,Coop,supermarket,Zürich,Alte Kalchbühlstrasse,15,8038,Mo-Sa 07:30-21:00
node,83330862,47.3447487,8.5299814,Migros,supermarket,Zürich,Etzelstrasse,3,8038,Mo-Sa 07:30-21:00; PH off
node,97995346,47.0947404,9.0745369,Spar,supermarket,Mollis,Bahnhofstrasse,4,8753,"Mo-Fr 07:30-13:00, 19:00-19:00; Sa 07:30-16:00"
node,119249170,47.3752549,8.5361073,Migros,supermarket,Zürich,Löwenstrasse,31-35,8001,Mo-Sa 09:00-20:00; PH off
node,124140239,47.2414948,8.7183709,ALDI,supermarket,Stäfa,Häldelistrasse,11,8712,Mo-Sa 08:00-20:00
node,124140551,47.2406357,8.7239602,Migros,supermarket,Stäfa,Goethestrasse,18,8712,Mo-Sa 08:00-20:00; PH off
node,124141245,47.241531,8.724530099999999,Coop,supermarket,Stäfa,Kronenstrasse,4-6,8712,Mo-Sa 07:30-20:00
node,185627927,47.3871106,8.1771397,Migros,supermarket,Lenzburg,Bachstrasse,15,5600,"Mo-Th 08:00-19:00, Fr 08:00-20:00, Sa 08:00-18:00; PH off"
node,206357901,47.0544427,8.3398988,Migros,supermarket,Luzern,Kreuzbuchstrasse,53,6006,"Mo-Th 08:00-19:00, Fr 08:00-20:00, Sa 08:00-17:00; PH off"
node,243155987,47.520631,7.6937067,Migros,supermarket,Pratteln,Burggartenstrasse,21,4133,"Mo-Fr 08:00-19:00, Sa 08:00-18:00; PH off"
node,246533376,47.5189532,8.720071,Migros,supermarket,Winterthur,Schaffhauserstrasse,152,8400,"Mo-Fr 08:30-20:00, Sa 08:00-18:00; PH off"
node,246803579,46.7677766,9.0624868,Volg,supermarket,Breil/Brigels,Via Principala,36,7165,Mo-Fr 07:30-18:30; Sa 07:30-17:00
node,248973330,47.2036113,9.3503443,Spar,supermarket,Wildhaus,Dorf,3,9658,Mo-Fr 07:00-18:30;Sa 07:00-17:00
node,251364444,47.567643,9.1108744,Migros,supermarket,Weinfelden,Amriswilerstrasse,12,8570,"Mo-Fr 08:00-19:00, Sa 08:00-18:00; PH off"
node,253909831,47.3773676,9.5378606,Migros,supermarket,Altstätten,Stossstrasse,2,9450,"Mo-Th 08:00-19:00, Fr 08:00-20:00, Sa 08:00-17:00; PH off"
node,262400822,47.3640724,8.5309446,Migros,supermarket,Zürich,Tessinerplatz,10,8002,"Mo-Fr 06:30-22:00; PH,Sa-Su 08:00-22:00"
node,264065177,47.4135249,8.5918701,Migros,supermarket,Wallisellen,Bahnhofstrasse,30,8304,Mo-Sa 07:00-20:00; PH off
node,264072829,47.4673262,8.293462,VOI Migros Partner,supermarket,Baden,Mellingerstrasse,142,5400,"Mo-Fr 07:00-20:00, Sa 07:00-18:00"
node,265776668,47.376417000000004,8.5595945,Coop,supermarket,Zürich,Zürichbergstrasse,75,8044,Mo-Fr 07:30-21:00; Sa 07:30-20:00
node,266571580,47.4821521,8.2094058,Migros,supermarket,Brugg,Neumarkt,1,5200,Mo-Sa 08:00-20:00; PH off
node,266630559,47.3777162,8.5112192,Coop,supermarket,Zürich,Badenerstrasse,333,8003,Mo-Sa 07:00-22:00
node,266644613,47.1688761,7.9926369,Coop,supermarket,Schötz,Luzernerstrasse,27,6247,"Mo 08:00-17:00; Tu-Th 08:00-19:00; Fr 08:00-20:00; Sa 07:30-17:00; Su,PH off"
node,266914642,47.2603539,8.5972571,Migros,supermarket,Horgen,Alte Landstrasse,24,8810,Mo-Sa 08:00-20:00; PH off
node,267344304,47.3883215,8.4965956,ALDI,supermarket,Zürich,Hohlstrasse,473,8048,Mo-Sa 07:30-21:00
node,267345511,47.3858089,8.516573900000001,Coop,supermarket,Zürich,Maagplatz,1,8005,Mo-Fr 06:00-20:00; Sa 08:00-20:00
node,267346993,47.3855977,8.5314709,Migros,supermarket,Zürich,Limmatstrasse,152,8005,Mo-Sa 07:30-20:00; PH off
node,267468996,47.3648716,8.521006,Coop,supermarket,Zürich,Uetlibergstrasse,20,8045,Mo-Sa 07:30-21:00
node,268603429,47.36736,8.5461737,Coop,supermarket,Zürich,Theaterstrasse,18,8001,Mo-Fr 08:00-20:00; Sa 08:00-19:00
node,269050379,47.3544624,8.7132591,Migros,supermarket,Uster,Winterthurerstrasse,18,8610,Mo-Sa 08:00-20:00; PH off
node,270692983,47.3579403,8.5546463,Coop,supermarket,Zürich,Seefeldstrasse,123,8008,Mo-Sa 07:00-22:00
node,270958272,47.3583667,8.5540739,Migros,supermarket,Zürich,Seefeldstrasse,111-113,8008,Mo-Sa 07:30-20:00; PH off
node,271028298,47.3656781,8.5480408,Migros,supermarket,Zürich,Falkenstrasse,19-21,8008,"Mo-Fr 07:00-20:00, Sa 08:00-20:00; PH off"
node,271028686,47.3667726,8.5480794,Coop,supermarket,Zürich,Stadelhoferstrasse,10,8001,Mo-Sa 06:00-22:00; Su 07:00-22:00
node,271029206,47.3645956,8.5538464,Migros,supermarket,Zürich,Kreuzplatz,20,8032,Mo-Sa 08:00-20:00; PH off
node,271029581,47.3643,8.5551291,Coop,supermarket,Zürich,Forchstrasse,4,8008,Mo-Sa 08:00-21:00
node,273942728,47.3576104,8.5713693,Migros,supermarket,Zürich,Forchstrasse,260,8008,Mo-Sa 08:00-20:00; PH off
node,274079274,46.5059315,6.6885514,Coop,supermarket,Lutry,Route de l'Ancienne Ciblerie,2,1095,Mo-Th 8:00-19:00;Fr 8:00-20:00;Sa 8:00-18:00
node,274598110,47.4926707,7.5943412,Migros,supermarket,Reinach BL,Herrenweg,11,4153,"Mo-Fr 08:00-19:00, Sa 07:30-18:00; PH off"
node,274716412,47.4200323,7.501762,Migros,supermarket,Laufen,Bahnhofstrasse,4,4242,"Mo-Th 08:00-19:00, Fr 08:00-20:00, Sa 08:00-18:00; PH off"
node,274824641,47.3689582,8.5413011,Lidl,supermarket,Zürich,Fraumünsterstrasse,16,8001,Mo-Sa 08:00-21:00
node,276363821,47.4188884,8.5056989,Coop,supermarket,Zürich,Wehntalerstrasse,549,8046,Mo-Sa 08:00-20:00
node,276847742,47.4356824,9.3920818,Migros,supermarket,St. Gallen,Bachstrasse,29,9008,Mo-Fr 08:00-19:00; Th 08:00-21:00; Sa 07:30-17:00; PH off
node,277204947,47.1755809,8.9022254,Coop,supermarket,Siebnen,Stockbergstrasse,1,8854,Mo-Fr 08:00-20:00; Sa 07:30-20:00
node,277204951,47.1759674,8.901942,Denner,supermarket,Siebnen,Glarnerstrasse,43,8854,Mo-Fr 08:00-20:00; Sa 07:30-20:00
node,279155943,47.1656305,8.2917405,Migros,supermarket,Hochdorf,Hauptstrasse,5,6280,"Mo-Th 08:00-19:00, Fr 08:00-20:00, Sa 08:00-17:00; PH off"
node,280130028,47.1554921,9.0396663,ALDI,supermarket,Schänis,Säumergutstrasse,3,8718,Mo-Th 07:30-19:00; Fr 07:30-20:00; Sa 07:30-17:00
node,280528081,46.9561025,7.4467039,Migros,supermarket,Bern,Dammweg,9,3013,"Mo-Fr 08:00-20:00, Sa 08:00-17:00; PH off"
node,281442993,47.2084598,8.7057527,Coop,supermarket,Richterswil,Poststrasse,14b,8805,Mo-Sa 07:00-20:00
node,282021895,46.5079638,6.6248618,Migros,supermarket,Lausanne,avenue de Rhodanie,2,1007,Mo-Sa 08:00-21:00; Su 09:00-20:00
node,282874901,47.4768338,8.3085492,Migros,supermarket,Baden,Bahnhofstrasse,40/42,5400,"Mo-Tu 08:00-19:00, We-Fr 08:00-20:00, Sa 07:30-18:00; PH off"
node,283103824,47.3936485,8.529543499999999,Coop,supermarket,Zürich,Scheffelstrasse,12,8037,Mo-Sa 07:00-21:00
node,283126967,47.392539,8.5245566,Coop,supermarket,Zürich,Röschibachstrasse,22,8037,Mo-Sa 07:30-20:00
node,283662654,47.4083114,7.542603,Migros,supermarket,Breitenbach,Laufenstrasse,4,4226,"Mo-Th 08:00-18:30, Fr 08:00-21:00, Sa 08:00-18:00; PH off"
node,286905575,46.2988807,7.0547305,Migros,supermarket,Villars-sur-Ollon,Rue Centrale,99,1884,Mo-Sa 07:30-19:00; Apr 01-Dec 19 Su 09:00-13:00; Dec 20-Mar 31 Su 09:00-18:00
node,287465898,47.5472376,7.5536153,Migros,supermarket,Allschwil,Spitzwaldstrasse,215,4123,"Mo-Fr 08:00-20:00, Sa 07:30-19:00; PH off"
node,290331752,46.5116006,6.6597671,Migros,supermarket,Pully,Chemin du Pré-de-la-Tour,3,1009,Mo-Fr 08:00-20:00; Sa 07:30-18:00
node,291092161,46.7800543,6.6357906,Coop,supermarket,Yverdon-les-Bains,Rue d'Orbe,1,1400,Mo-Fr 08:00-18:30; Sa 08:00-18:00
node,293487431,46.7811874,6.6349389,Migros,supermarket,Yverdon-les-Bains,Rue de Neuchâtel,3,1400,"Mo-Fr 07:30-18:30, Sa 07:30-18:00; PH off"
node,295262648,47.5024247,7.5960558,Migros,supermarket,Reinach BL,Niederbergstrasse,1,4153,"Mo-Fr 08:00-19:00, Sa 08:00-17:00; PH off"
node,295943800,47.5403596,9.1825256,Migros,supermarket,Sulgen,Hauptstrasse,3,8583,"Mo-Fr 08:00-20:00, Sa 08:00-18:00; PH off"
node,298476455,46.7444501,7.6138807,Migros,supermarket,Thun,Talackerstrasse,62,3604,Mo-Th 08:00-20:00; Fr 08:00-21:00; Sa 07:30-17:00
node,298540222,47.2892115,8.539786,Coop,supermarket,Langnau am Albis,Höflistrasse,7,8135,Mo-Sa 07:30-20:00
node,298540226,47.2913031,8.5377603,Migros,supermarket,Langnau am Albis,Hintere Grundstrasse,2,8135,"Mo-Fr 08:00-20:00, Sa 08:00-18:00; PH off"
node,298540370,47.2942957,8.5639941,Migros,supermarket,Thalwil,Alte Landstrasse,130,8800,Mo-Sa 07:30-20:00; PH off
node,299311873,46.6242026,8.0352078,Coop,supermarket,Grindelwald,Dorfstrasse,101,3818,Mo-Su 08:00-19:00
node,300332412,47.3738098,8.6410653,Migros,supermarket,Fällanden,Unterdorfstrasse,2,8117,Mo-Sa 08:00-20:00; PH off
node,301656130,47.3685372,8.7809413,Migros,supermarket,Pfäffikon ZH,Turmstrasse,9,8330,"Mo-Fr 08:00-20:00, Sa 08:00-19:00; PH off"
node,301815692,47.3728259,8.5294871,Denner,supermarket,Zürich,Werdstrasse,36,8004,Mo-Sa 08:00-20:00
node,302821909,47.3494071,8.2724788,Migros,supermarket,Wohlen,Bahnhofstrasse,7,5610,"Mo-We 08:00-19:00, Th-Fr 08:00-20:00, Sa 07:30-18:00; PH off"
node,303310841,47.3679847,8.8775826,Migros,supermarket,Bauma,Heinrich Gujerstrasse,10,8494,"Mo-Fr 08:00-20:00, Sa 08:00-19:00; PH off"
node,305726027,47.4533937,8.6353888,Landi,supermarket,Nürensdorf,Eigentalstrasse,51,8309,Mo-Fr 08:00-19:00; Sa 08:00-17:00
node,308188423,47.1865987,7.7037027,Migros,supermarket,Herzogenbuchsee,Bernstrasse,33,3360,"Mo-Th 08:00-19:00, Fr 08:00-21:00, Sa 07:30-17:00; PH off"
node,309289260,46.6390803,6.6357033,Migros,supermarket,Echallens,Rue de Praz-Palud,2,1040,Lu-Ve 07:30-19:00; Sa 07:30-18:00
node,309442624,47.4501764,8.32741,Migros,supermarket,Neuenhof,Zürcherstrasse,19,5432,"Mo-Fr 08:00-19:00, Sa 08:00-18:00; PH off"
node,310133197,47.4195222,8.548286,Migros,supermarket,Zürich,Schaffhauserstrasse,470,8052,Mo-Sa 08:00-20:00; PH off
node,310789073,47.3748981,8.5234086,Denner,supermarket,Zürich,Wengistrasse,7,8004,Mo-Fr 08:00-20:00; Sa 08:00-18:00; PH off
node,310859990,47.4799969,8.485237099999999,Migros,supermarket,Niederhasli,Dorfstrasse,20,8155,"Mo-Fr 08:00-19:00, Sa 08:00-18:00; PH off"
node,312012094,47.4114322,8.5264773,Denner,supermarket,Zürich,Regensbergstrasse,309,8050,Mo-Sa 08:00-20:00
node,312649674,47.2290212,8.6678724,Migros,supermarket,Wädenswil,Oberdorfstrasse,27,8820,Mo-Sa 08:00-20:00; PH off
node,312838980,47.3791999,8.5087992,Migros,supermarket,Zürich,Badenerstrasse,376,8004,Mo-Sa 08:00-21:00; PH off
node,313026968,47.3758009,8.5174447,Coop,supermarket,Zürich,Badenerstrasse,244,8004,Mo-Sa 07:00-22:00
node,317283183,47.2439416,8.4636498,Volg,supermarket,Mettmenstetten,Albisstrasse,3,8932,Mo-Sa 06:00-20:00; PH off
node,317466812,46.873158,7.5601521,Migros,supermarket,Münsingen,Bahnhofplatz,5,3110,"Mo-Th 08:00-20:00, Fr 08:00-21:00, Sa 07:30-17:00; PH off"
node,321302285,47.3944387,8.7764573,Spar,supermarket,Russikon,Kirchgasse,1,8332,Mo-Fr 06:30-20:00 Sa 07:00-18:00
node,321361643,47.3925525,8.5384284,Migros,supermarket,Zürich,Schaffhauserstrasse,75,8057,Mo-Sa 07:30-21:00; PH off
node,321361788,47.395724799999996,8.5404707,Coop,supermarket,Zürich,Milchbuckstrasse,1-5,8057,Mo-Sa 07:30-21:00
node,321491564,47.1427895,7.2718688,VOI Migros Partner,supermarket,Biel/Bienne,Schollstrasse,2,2504,Mo-Fr 07:30-19:00; Sa 07:30-17:00
node,321947542,47.3841236,8.5317649,Denner,supermarket,Zürich,Fierzgasse,18,8005,Mo-Sa 08:00-20:00
node,323233592,47.4943127,7.6184992000000005,Migros,supermarket,Arlesheim,Postplatz,7,4144,Mo-Fr 08:00-19:00; Sa 08:00-18:00
node,323236507,47.4942966,8.3410211,Coop,supermarket,Ehrendingen,Dorfstrasse,19,5420,Mo-Fr 08:00-20:00; Sa 07:30-18:00
node,323254505,47.1448936,8.431358,Denner,supermarket,Rotkreuz,Sunneblick,31,6343,Mo-Th 07:30-19:00; Fr 07:30-20:00; Sa 07:30-17:00
node,325124472,47.2811857,8.4043892,Volg,supermarket,Ottenbach,Dorfplatz,3,8913,Mo-Sa 07:00-20:00
node,331165091,47.019854,7.4447224,Coop,supermarket,Münchenbuchsee,Oberdorfstrasse,39,3053,Mo-Th 07:00-19:00; Fr 07:00-20:00; Sa 07:00-17:00
node,335990607,47.5852901,7.6517854,Migros,supermarket,Riehen,Webergässchen,8,4125,"Mo-Fr 08:00-19:00, Sa 07:30-18:00; PH off"
node,336325220,46.7253107,9.557656099999999,Spar,supermarket,Lenzerheide/Lai,Voa Principala,27,7078,Mo-Fr 07:00-18:30;Sa 07:00-18:00
node,341936626,47.5018288,8.4056858,Volg,supermarket,Oberweningen,Dorfstrasse,3,8165,Mo-Fr 07:00-19:00; Sa 07:00-17:00
node,341936868,47.5074632,8.3806782,Volg,supermarket,Niederweningen,Alte Poststrasse,2,8166,Mo-Fr 06:00-20:00; Sa 07:00-18:00
node,352860119,47.3701218,8.5200924,Migros,supermarket,Zürich,Birmensdorferstrasse,140,8003,Mo-Sa 07:30-21:00; PH off
node,354481720,46.1077139,7.9262613,Coop,supermarket,Saas-Fee,Untere Dorfstrasse,41,3906,Mo-Sa 08:00-18:30; Su 09:00-18:30
node,354543032,47.349994,8.7151342,Migros,supermarket,Uster,Zürichstrasse,20,8610,Mo-Sa 08:00-20:00; PH off
node,357198361,46.4039727,8.1355456,Migros,supermarket,Fiesch,Furkastrasse,46,3984,Mo-Su 08:00-19:00
node,357299658,46.292416,7.8802315,Coop,supermarket,Visp,Kantonsstrasse,1,3930,Mo-Fr 09:00-18:30; Sa 09:00-17:00; Su off
node,359700173,46.7283941,9.5537087,Volg,supermarket,Lenzerheide/Lai,Voa Sporz,12,7078,Mo-Sa 07:00-19:00; Su 07:00-18:00
node,365340184,47.1274508,7.9971057,Coop,supermarket,Willisau,Ettiswilerstrasse,37,6130,Mo-Th 07:30-19:00; Fr 07:30-21:00; Sa 07:30-17:00
node,366139633,47.5526701,7.5927128,Migros,supermarket,Basel,Aeschenvorstadt,24,4051,"Mo-Fr 07:30-20:00, Sa 07:30-18:00; PH off"
node,372802218,47.4826186,7.7360487,Migros,supermarket,Liestal,Kasernenstrasse,8,4410,"Mo-Fr 08:00-19:00, Sa 08:00-18:00; PH off"
node,385235761,47.0559837,8.0703718,Migros,supermarket,Wolhusen,Entlebucherstrasse,36,6110,"Mo-Th 08:00-19:00, Fr 08:00-21:00, Sa 08:00-17:00; PH off"
node,386270747,47.253025,8.6957963,Migros,supermarket,Männedorf,Alte Landstrasse,262,8708,"Mo-Fr 08:00-20:00, Sa 07:30-18:00; PH off"
node,390507903,46.028183,7.1441742,Volg,supermarket,Orsières,rue du Châtelard,24,1937,"Mo-Fr 06:00-18:45; Sa,Su 06:00-17:00"
node,391914330,46.9695609,9.6876381,Volg,supermarket,Schiers,Dorfstrasse,42,7220,Mo-Fr 06:00-19:00; Sa 06:00-17:00
node,394819083,47.5216609,7.6074542,Migros,supermarket,Münchenstein,Kaspar Pfeiffer-Strasse,2,4142,Mo-Th 08:00-19:00; Fr 08:00-20:00; Sa 07:30-18:00
node,401590212,47.3526298,8.3496696,Migros,supermarket,Bremgarten AG,Zufikerstrasse,2,5620,"Mo-Th 08:00-19:00, Fr 08:00-20:00, Sa 08:00-18:00; PH off"
node,409618104,47.0569221,7.6293304,Coop,supermarket,Burgdorf,Sägegasse,14,3400,Mo-Th 08:00-19:00; Fr 08:00-21:00; Sa 08:00-17:00
node,413401528,47.4570259,7.743167,Migros,supermarket,Bubendorf,Grüngenstrasse,1,4416,"Mo-Th 08:00-19:00, Fr 08:00-20:00, Sa 07:30-18:00; PH off"
node,415732099,46.5342463,6.5648357,Migros,supermarket,Ecublens (VD),Chemin du Croset,7,1024,Mo-Fr 08:00-20:00; Sa 08:00-18:00
node,420847626,47.4031872,8.40575,ALDI,supermarket,Dietikon,Zürcherstrasse,5,8953,"Mo,Th,Sa 07:30-20:00; Tu-We,Fr 08:00-20:00; PH closed"
node,421617678,47.1362624,8.1920591,VOI,supermarket,Sempach,Oberstadt,6,6204,Mo-Th 07:30-19:00; Fr 07:30-20:00; Sa 07:30-17:00; PH off
node,427050153,47.4214003,8.4115391,VOI Migros Partner,supermarket,Geroldswil,Huebwiesenstrasse,26b,8954,"Mo-Fr 07:00-19:00, Sa 07:00-18:00; PH off"
node,427914141,47.1743497,8.0987534,Lidl,supermarket,Sursee,Buchenstrasse,2,6210,"Mo-We 07:30-19:00; Th,Fr 07:30-21:00; Sa 07:30-17:00"
node,430270006,46.9634938,7.4818402,Aldi,supermarket,Ostermundigen,Milchstrasse,2,3072,Mo-Fr 08:00-20:00; Sa 08:00-17:00
node,430491496,47.5673113,9.0945075,Migros,supermarket,Weinfelden,Weststrasse,27-29,8570,"Mo-Fr 08:00-20:00, Sa 08:00-19:00; PH off"
node,433905577,47.3203453,8.5218139,Denner,supermarket,Adliswil,Soodstrasse,52,8134,Mo-Fr 07:00-20:00; Sa 07:00-18:00; PH closed
node,434348269,46.1557134,8.7714078,Coop,supermarket,Ascona,Via Buonamano,1,6612,Mo-Fr 08:00-19:00; Sa 08:00-18:30
node,436612951,47.1178035,8.391826,Coop,supermarket,Root,Bahnhofstrasse,17,6037,Mo-Th 08:00-18:30; Fr 08:00-20:00; Sa 07:30-16:00
node,438261303,46.955334,7.433628,Migros,supermarket,Bern,Zähringerstrasse,43,3012,"Mo-Th 08:00-20:00, Fr 08:00-21:00, Sa 08:00-17:00; PH off"
node,440814822,47.4231267,8.4992903,Spar,supermarket,Zürich,Wehntalerstrasse,634,8046,Mo-Sa 06:00-20:00
node,442702205,47.0778381,8.275256,Migros,supermarket,Emmenbrücke,Sonnenplatz,1,6020,"Mo-Th 08:00-19:00, Fr 08:00-21:00, Sa 08:00-17:00; PH off"
node,448564067,47.5685953,8.5233655,Migros-Outlet,supermarket,Eglisau,Sandgruebstrasse,1,8193,"Mo-Fr 09:00-20:00, Sa 08:00-18:00; PH off"
node,448941788,46.6344598,8.5963576,Coop,supermarket,Andermatt,Gotthardstrasse,30,6490,Mo-Fr 07:30-19:00; Sa 07:30-18:00
node,450879978,47.2783381,8.4538088,Migros,supermarket,Affoltern am Albis,Oberdorfstrasse,4,8910,Mo-Sa 08:00-20:00; PH off
node,451720086,47.3580599,8.5173007,Migros,supermarket,Zürich,Giesshübelstrasse,65,8045,Mo-Sa 08:00-20:00; PH off
node,452160401,47.4115497,8.5280301,Spar,supermarket,Zürich,Regensbergstrasse,300,8050,Mo-Sa 06:00-20:00
node,452715384,47.4204198,8.5082174,Migros,supermarket,Zürich,Jonas-Furrer-Strasse,21,8046,Mo-Sa 08:00-20:00; PH off
node,452715388,47.4199085,8.5080891,Denner,supermarket,Zürich,In Böden,174,8046,Mo-Sa 08:00-20:00
node,453138896,47.5741296,8.2558575,Migros,supermarket,Döttingen,Hauptstrasse,17,5312,"Mo-Fr 08:00-19:00, Sa 08:00-18:00; PH off"
node,454141500,46.9411222,7.4185719,VOI,supermarket,Bern,Könizstrasse,60,3008,Mo-Fr 07:00-20:00; Sa 08:00-17:00; PH off
node,456364553,47.318895,8.419871,Volg,supermarket,Arni,Staldenstrasse,3,8905,Mo-Sa 06:30-19:30
node,457133149,47.4105711,8.5430953,Migros,supermarket,Zürich,Hofwiesenstrasse,350-354,8050,Mo-Sa 08:00-20:00; PH off
node,457555818,47.1284908,7.5585463,Migros,supermarket,Utzenstorf,Hauptstrasse,39,3427,"Mo-Th 08:00-19:00, Fr 08:00-20:00, Sa 08:00-17:00; PH off"
node,459828128,46.9561006,8.5149349,Volg,supermarket,Emmetten,Hinterhostattstrasse,4,6376,Mo-Sa 06:30-19:00; Su 08:00-18:00
node,469723663,47.6111515,8.7261239,Volg,supermarket,Ossingen,Mitteldorfstrasse,21,8475,Mo-Fr 07:00-19:00; Sa 07:00-17:00
node,470217716,47.3847889,8.527125,Coop,supermarket,Zürich,Röntgenstrasse,48,8005,Mo-Sa 07:00-21:00
node,475204307,47.240999,8.9239856,Migros,supermarket,Eschenbach SG,Rickenstrasse,12,8733,"Mo-Fr 07:30-19:00, Sa 07:30-17:00; PH off"
node,479283559,47.0199856,7.4512598,Migros,supermarket,Münchenbuchsee,Bernstrasse,14,3053,"Mo-Fr 08:00-19:00, Sa 07:30-17:00; PH off"
node,480274029,47.3937084,8.5292465,Migros,supermarket,Zürich,Scheffelstrasse,3,8037,Mo-Sa 07:30-21:00; PH off
node,480357406,47.3988666,8.5326286,Denner,supermarket,Zürich,Hofwiesenstrasse,135,8057,Mo-Sa 07:00-20:00
node,482763774,47.4137334,8.5390336,ALDI,supermarket,Zürich,Binzmühlestrasse,102,8050,Mo-Sa 07:30-20:00
node,489771088,46.9422469,7.4531136,Migros,supermarket,Bern,Thunstrasse,18,3005,"Mo-Fr 08:00-20:00, Sa 08:00-17:00; PH off"
node,490962848,47.2677785,8.2605319,Volg,supermarket,Schongau,Mettmenstrasse,5,6288,Mo-Fr 07:00-18:30; Sa 07:30-17:00
node,496145119,46.967174299999996,8.5848827,Volg,supermarket,Seelisberg,Tanzplatz,4,6377,Mo-Fr 06:30-19:00; Sa 06:30-17:00
node,497729467,47.6032029,9.0050386,Volg,supermarket,Müllheim Dorf,Kreuzlingerstrasse,18,8555,Mo-Sa 06:00-21:00
node,500060387,47.5553188,7.7977519,Migros,supermarket,Rheinfelden,Lindenstrasse,3,4310,"Mo-We 08:00-19:00, Th-Fr 08:00-20:00, Sa 07:30-18:00; PH off"
node,506053167,46.8522999,9.5346368,Coop,supermarket,Chur,Quaderstrasse,36,7000,Mo-Fr 08:00-20:00; Sa 08:00-18:00
node,506648228,47.0431572,8.3115279,Denner,supermarket,Luzern,Brünigstrasse,16,6005,Mo-Th 08:00-19:00; Fr 08:00-20:00; Sa 08:00-17:00
node,506648661,47.0423384,8.3168248,Migros,supermarket,Luzern,Tribschenstrasse,66,6005,"Mo-Fr 07:00-19:00, Sa 07:00-17:00; PH off"
node,508690458,47.233920499999996,7.6552738,VOI Migros Partner,supermarket,Wangen an der Aare,Vorstadt,14,3380,Mo-Fr 08:00-19:00;Sa 07:30-17:00
node,514589840,46.9592975,7.4551531,Coop,supermarket,Bern,Stauffacherstrasse,2,3014,"Mo-Fr 07:30-20:00, Sa 07:30-17:00"
node,515963223,47.4050955,8.4020814,Migros,supermarket,Dietikon,Löwenstrasse,28,8953,"Mo-Fr 08:00-20:00, Sa 08:00-18:00; PH off"
node,528141420,47.1237589,7.9948675,Migros,supermarket,Willisau,Ettiswilerstrasse,14,6130,"Mo-Th 08:00-19:00, Fr 08:00-21:00, Sa 07:30-17:00; PH off"
node,529952282,46.9369871,7.4750949,Migros,supermarket,Bern,Egghölzlistrasse,1,3006,"Mo-Fr 08:00-20:00, Sa 08:00-17:00; PH off"
node,529971961,47.1731419,8.5183034,Migros,supermarket,Zug,Baarerstrasse,22,6300,Mo-Fr 08:00-19:00; Th 08:00-21:00; Sa 08:00-17:00; PH off
node,534632457,46.9374546,7.4760187,Coop,supermarket,Bern,Weltpoststrasse,20,3015,Mo-Fr 07:00-19:00; Sa 07:00-17:00
node,536500228,47.0591662,7.6208073,Migros,supermarket,Burgdorf,Lyssachstrasse,27,3400,Mo-We 08:00-19:00; Th 08:00-20:00; Fr 08:00-21:00; Sa 07:30-17:00; PH off
node,536764788,46.9395786,7.4812674,Migros,supermarket,Bern,Jupiterstrasse,15,3015,"Mo-Fr 08:00-19:00, Sa 08:00-17:00; PH off"
node,540757239,46.9657564,7.4636343,Migros,supermarket,Bern,Wankdorffeldstrasse,71,3014,"Mo-Th 08:00-19:00, Fr 08:00-20:00, Sa 08:00-17:00; PH off"
node,540988144,47.4693583,7.5955183,Coop,supermarket,Aesch,Hauptstrasse,95,4147,"Mo-Fr 08:00-20:00, Sa 07:30-18:00"
node,540988152,47.4691204,7.5954926,Migros,supermarket,Aesch BL,Hauptstrasse,95,4147,"Mo-Fr 08:00-20:00, Sa 07:30-18:00; PH off"
node,544246178,47.2941009,8.2442351,Migros,supermarket,Fahrwangen,Hintergasse,12,5615,"Mo-Fr 08:00-19:00, Sa 08:00-17:00; PH off"
node,546161433,47.3617716,8.5149344,Lidl,supermarket,Zürich,Grubenstrasse,28,8045,"Mo, Th, Sa 07:30-21:00; Tu, We, Fr 08:00-21:00"
node,546884750,47.4016795,8.0444212,VOI Migros Partner,supermarket,Rombach,Bibersteinerstrasse,4,5022,Mo-Fr 08:00-19:00; Sa 07:30-18:00; PH off
node,548919417,47.5068626,8.7122083,Migros,supermarket,Winterthur,Wülflingerstrasse,71,8400,"Mo-Fr 07:30-20:00, Sa 08:00-18:00; PH off"
node,561017124,47.3979838,8.6177326,Migros,supermarket,Dübendorf,Unterdorfstrasse,7,8600,Mo-Sa 08:00-20:00; PH off
node,563138869,46.9454484,7.4628317,VOI,supermarket,Bern,Schosshaldenstrasse,16,3006,Mo-Fr 07:30-19:00; Sa 07:30-17:00; Su off; PH off
node,566472206,47.2099754,8.7038152,Denner,supermarket,Richterswil,Rosengartenstrasse,4,8805,Mo-Fr 08:00-20:00; Sa 08:00-18:00
node,568021839,46.9979566,7.4603159,ALDI,supermarket,Zollikofen,Bernstrasse,160,3052,"Mo-Fr 08:00-20:00; Sa 08:00-17:00; Su,PH off"
node,574611567,46.5522762,9.3236033,Volg,supermarket,Splügen,Splügenpassstrasse,1a,7435,Mo-Su 07:00-19:00
node,583655442,46.9536697,7.4546054,VOI,supermarket,Bern,Viktoriastrasse,49,3013,"Mo-Fr 07:30-20:00, Sa 07:30-17:00; PH off"
node,584796979,47.5560278,7.5813063,Migros,supermarket,Basel,Schützenmattstrasse,27,4051,"Mo-Fr 08:00-19:00, Sa 07:30-18:00; PH off"
node,588346336,47.2038879,7.5401957,ALDI,supermarket,Solothurn,Dornacherstrasse,26,4500,Mo-Fr 07:30-18:30; Th 07:30-20:00; Sa 07:30-17:00
node,594574148,47.1728168,8.1021662,Migros,supermarket,Sursee,Bahnhofstrasse,28,6210,Mo-Fr 08:00-19:00; Th 08:00-21:00; Sa 08:00-17:00; PH off
node,597610054,47.4073439,9.6290194,Migros,supermarket,Widnau,Bahnhofstrasse,2,9443,Mo-Th 08:00-19:00; Fr 08:00-20:00; Sa 08:00-17:00
node,598704140,46.6417695,6.6310578,Coop,supermarket,Echallens,Route d'Orbe,4,1040,Mo-Fr 07:30-19:00; Sa 07:30-18:00
node,598706341,47.363496,7.346629,Migros,supermarket,Delémont,Rue de la Maltière,12,2800,Mo-Fr 08:00-18:30; Th 08:00-20:00; Sa 07:30-17:00; PH off
node,601509798,46.9971474,7.4587272,Coop,supermarket,Zollikofen,Märitgasse,1,3052,Mo-Th 07:00-19:00; Fr 07:00-20:00; Sa 07:00-17:00
node,602843372,46.8369492,9.4520372,Coop,supermarket,Domat/Ems,Via Nova,96,7013,Mo-Fr 08:00-20:00; Sa 08:00-18:30
node,612820572,46.2358664,7.3597285,Migros,supermarket,Sion,Avenue Ritz,31,1950,"Mo-Fr 07:30-18:30; Sa 07:30-17:00; Su, PH off"
node,614828024,47.4034212,8.5893605,Coop,supermarket,Zürich,Hirzenbachstrasse,40,8051,Mo-Sa 07:30-20:00
node,614862188,46.9635406,7.4651959,Coop;wikidata=Q432564,supermarket,Bern,Papiermühlestrasse,85,3014,Mo-Th 08:00-20:00; Fr 08:00-21:00; Sa 08:00-17:00; Su off
node,619538054,47.3746041,8.0776608,Denner,supermarket,Suhr,Mittlere Dorfstrasse,7,5034,Mo-Fr 07:30-19:00; Sa 07:30 - 18:00
node,620055074,46.9795577,8.337829,Volg,supermarket,Stansstad,Dorfplatz,15,6362,Mo-Sa 06:30-20:00; Su 08:00-18:00
node,622099197,47.3704893,8.4927577,VOI Migros Partner,supermarket,Zürich,Letzigraben,239,8047,Mo-Sa 07:30-20:00; PH off
node,623872888,47.2519351,8.7695926,Migros,supermarket,Hombrechtikon,Rütistrasse,16,8634,Mo-Sa 08:00-19:00; PH off
node,626075409,46.2010562,6.1399565,VOI,supermarket,Genève,Place du Cirque,2,1204,Mo-Fr 07:30-20:00; Sa 07:30-19:00; Su 09:00-17:00
node,629208307,47.5098844,7.554625,Migros,supermarket,Oberwil BL,Mühlemattstrasse,18,4104,Mo-Sa 08:00-20:00; PH off
node,631092302,46.187479,6.1046981,Coop,supermarket,Onex,Rue des Bossons,17-19,1213,Mo-We 08:00-19:00; Th 08:00-21:00; Fr 08:00-19:30; Sa 08:00-18:00
node,632708467,47.1814359,8.4617688,Coop,supermarket,Cham,Seehofstrasse,14,6330,Mo-Th 08:00-19:00; Fr 08:00-21:00; Sa 07:30-17:00
node,635745470,46.9399952,7.4409008,ALDI,supermarket,Bern,Eigerstrasse,82,3007,Mo-Fr 07:30-20:00; Sa 07:30-17:00
node,639144592,47.4037955,8.573042300000001,Migros,supermarket,Zürich,Winterthurerstrasse,524,8051,Mo-Sa 08:00-20:00; PH off
node,651273252,47.3732882,8.5305624,Coop,supermarket,Zürich,Badenerstrasse,15,8004,Mo-Sa 07:00-21:00; PH off
node,651644038,47.3916942,8.046187,Migros,supermarket,Aarau,Igelweid,18,5000,Mo-Fr 08:00-19:00; Th 08:00-20:00; Sa 08:00-18:00; PH off
node,659862626,47.3758956,8.4870255,Coop,supermarket,Zürich,Albisriederstrasse,334,8047,Mo-Sa 08:00-20:00
node,660174913,47.1963548,8.4828142,Coop,supermarket,Steinhausen,Bahnhofstrasse,7,6312,"Mo-Th 07:00-19:00, Fr 07:00-21:00, Sa 07:00-17:00"
node,661056247,47.5623042,7.5728438,Migros,supermarket,Basel,Burgfelderstrasse,11,4055,Mo-Fr 08:00-19:00; Sa 07:30-18:00; PH off
node,661995247,47.4673647,8.3244562,Migros,supermarket,Wettingen,Landstrasse,69,5430,Mo-Sa 08:00-20:00; PH off
node,664446565,47.2737527,8.914786,Coop,supermarket,wald,Bahnhofstrasse,33,8636,Mo-Sa 07:30-20:00
node,667410777,46.9400687,7.4319625,Migros,supermarket,Bern,Seftigenstrasse,1,3007,"Mo-Fr 07:00-20:00, Sa 08:00-17:00; PH off"
node,668900326,47.2034641,7.5603451,Migros,supermarket,Zuchwil,Hauptstrasse,60-62,4528,"Mo-Fr 08:00-18:30,Sa 07:30-18:00; PH off"
node,668943412,47.0614224,8.3083616,Coop,supermarket,Luzern,Maihofstrasse,1,6006,Mo-Fr 07:30-18:30; Sa 07:30-16:00
node,668977849,46.8809204,8.6454171,Coop,supermarket,Altdorf,Hellgasse,3,6460,Mo-Th 07:30-18:30; Fr 07:30-21:00; Sa 07:30-17:00
node,687015806,46.6264989,10.4458018,Volg,supermarket,Müstair,Via Maistra,61,7537,Mo-Fr 07:00-18:30; Sa 07:00-18:00
node,692089430,47.1507455,8.1682118,Volg,supermarket,Eich,Botenhofstrasse,2,6205,Mo-Fr 06:00-19:00; Sa 06:00-17:00
node,702374477,47.1350486,7.2443027,Migros,supermarket,Biel/Bienne,Bahnhofstrasse,15,2502,"Mo-We 07:30-19:00; Th,Fr 07:30-20:00; Sa 07:30-17:00; Su off"
node,702400147,47.1897028,7.3991810000000005,Migros,supermarket,Grenchen,Freiestrasse,10,2540,"Mo-Th 08:00-18:30, Fr 08:00-21:00, Sa 07:30-18:00; PH off"
node,704656423,47.6988386,8.6340912,Migros,supermarket,Schaffhausen,Bahnhofstrasse,56-58,8200,"Mo-Fr 07:30-19:30, Sa 07:30-18:00; PH off"
node,707688653,47.5690946,7.5796433,Coop,supermarket,Basel,Elsässerstrasse,36,4056,Mo-Fr 07:30-20:00; Sa 07:30-18:00
node,707688659,47.5683624,7.5794364,Migros,supermarket,Basel,Mülhauserstrasse,70-72,4056,Mo-Fr 07:00-20:00; Sa 07:00-18:00; PH off
node,726288113,46.9332941,7.5041936,Migros,supermarket,Gümligen,Turbenweg,1,3073,"Mo-Th 08:00-19:00, Fr 08:00-21:00, Sa 08:00-17:00; PH off"
node,729897788,47.2686992,8.6463179,Coop,supermarket,Meilen,Dorfstrasse,140,8706,Mo-Sa 07:00-20:00
node,732594357,47.2650506,9.1207326,Migros,supermarket,Ebnat-Kappel,Kapplerstrasse,16,9642,"Mo-Fr 08:00-19:00, Sa 08:00-17:00; PH off"
node,760692391,46.5293757,6.6305889,Coop,supermarket,Lausanne,Rue de la Pontaise,14,1018,Mo-Fr 08:00-19:00; Sa 08:00-18:00
node,761492253,47.5586733,7.6018528,Migros,supermarket,Basel,Grenzacherstrasse,62-64,4058,"Mo-Fr 08:00-19:00, Sa 08:00-17:00; PH off"
node,763322810,47.3347288,8.529589,VOI,supermarket,Zürich,Paradiesstrasse,3,8038,Mo-Sa 08:00-20:00; PH off
node,764528274,47.3925901,8.0585382,ALDI,supermarket,Aarau,Industriestrasse,1,5000,Mo-Fr 09:00-19:00; Th 09:00-20:00; Sa 09:00-18:00; PH off
node,765330266,47.3028814,8.0476665,Migros,supermarket,Schöftland,Picardiestrasse,3,5040,"Mo-Fr 08:00-19:00, Sa 08:00-17:00; PH off"
node,765567648,47.3737558,8.5376871,ALDI,supermarket,Zürich,Sihlstrasse,3,8001,Mo-Sa 08:00-21:00
node,766705800,47.4134214,8.5405759,Coop,supermarket,Zürich,Sophie-Taeuber-Strasse,4,8050,Mo-Sa 07:30-21:00
node,769896120,46.90785,7.1106483,Volg,supermarket,Courgevaux,Chemin de l'Ancienne Poste,4,1796,Mo-Fr 06:00-19:00; Sa 07:00-16:00; Su 07:00-12:00
node,790036550,46.2288146,6.1200851,Migros,supermarket,Le Grand-Saconnex,Rue Sonnex,20,1218,Mo-We 08:30-19:00; Th-Fr 08:30-19:30; Sa 08:00-18:00
node,800659128,47.1285949,8.743477,Volg,supermarket,Einsiedeln,Zürichstrasse,6,8840,Mo-Fr 06:00-18:30; Sa 07:00-16:00; Su 07:00-12:00
node,804534298,47.5671248,7.5948273,Denner,supermarket,Basel,Hammerstrasse,129,4057,Mo-Fr 08:00-19:00; Sa 07:30-18:00
node,831519655,46.9398302,7.7876463,Migros,supermarket,Langnau i. E.,Schlossstrasse,1a,3550,"Mo-We 08:00-19:00, Th 08:00-20:00, Fr 08:00-21:30, Sa 07:30-17:00; PH off"
node,831775970,47.3005016,8.3126826,Volg,supermarket,Boswil,Zentralstrasse,22,5623,Mo-Sa 06:00-20:00
node,833359581,46.7999002,6.7453686,Coop,supermarket,Yvonand,Grand'Rue,16,1462,Tu-Fr 07:30-18:30; Sa 07:30-17:00
node,840913865,46.5283611,8.610678,Coop,supermarket,Airolo,Via San Gottardo,41,6780,"Mo-Fr 08:00-12:30, 14:00-19:00; Sa 08:00-18:30"
node,841975023,47.3850141,8.4221039,Migros,supermarket,Urdorf,Birmensdorferstrasse,87,8902,Mo-Sa 08:00-20:00; PH off
node,847024491,46.5308968,6.6345902,Coop,supermarket,Lausanne,Avenue du Parc-de-la-Rouvraie,3,1018,Mo-Fr 07:30-19:00; Sa 07:30-18:00
node,862942472,47.0924335,9.0585806,ALDI,supermarket,Näfels,Oberdorf,54,8752,Mo-Fr 08:00-20:00; Sa 08:00-18:00
node,891896182,47.3508913,8.6431507,Migros,supermarket,Ebmatingen,Zürichstrasse,108,8123,Mo-Sa 08:00-20:00; PH off
node,898174751,47.346669,7.9094486,Migros,supermarket,Olten,Louis Giroud-Strasse,20,4600,Mo-Fr 08:00-18:30; Th 08:00-20:00; Sa 08:00-18:00; PH off
node,903622917,46.7473993,7.625974,ALDI,supermarket,Thun,Frutigenstrasse,46C;46a,3600,Mo-Fr 08:00-20:00; Sa 08:00-17:00; Su off
node,910839781,46.3987905,8.1473797,Volg,supermarket,Ernen,Mühlebachstrasse,8,3995,Mo-Su 07:00-19:00
node,921188281,46.893384,7.4975955,Coop,supermarket,Belp,Schützenweg,3,3123,Mo-Th 08:00-19:00; Fr 08:00-20:00; Sa 08:00-17:00
node,922264343,46.1824564,6.1344159,Migros,supermarket,Carouge,Avenue Vibert,29,1227,"Mo-We, Fr 08:30-19:00; Sa 08:30-18:00; Th 08:30-20:00"
node,922783656,46.8966085,7.4931656,Migros,supermarket,Belp,Steinbachstrasse,28,3123,"Mo-Th 08:00-19:00, Fr 08:00-21:00, Sa 07:30-17:00; PH off"
node,939538237,47.1825379,8.4612037,Migros,supermarket,Cham,Zugerstrasse,15-17,6330,Mo-Th 08:00-19:00; Fr 08:00-20:00; Sa 07:30-17:00; PH off
node,956199310,47.4126594,9.1858853,Migros,supermarket,Flawil,Magdenauerstrasse,10,9230,"Mo-Th 08:00-19:00, Fr 08:00-20:00, Sa 08:00-17:00; PH off"
node,958154999,47.2259117,8.8182095,Migros,supermarket,Rapperswil,Untere Bahnhofstrasse,19,8640,Mo-Fr 07:30-19:00; Sa 07:30-18:00; PH off
node,963198491,47.1381682,8.5793078,Migros,supermarket,Unterägeri,Zugerstrasse,32,6314,"Mo-Th 07:30-19:00, Fr 07:30-20:00, Sa 07:30-17:00; PH off"
node,983971502,47.0498728,8.2602561,Migros,supermarket,Luzern,Fanghöfli,14,6014,"Mo-Fr 09:00-18:00, Sa 09:00-17:00; PH off"
node,995471959,47.3793846,8.5594679,Migros,supermarket,Zürich,Toblerstrasse,73,8044,Mo-Sa 07:30-20:00; PH off
node,1004502006,47.4028716,8.5465484,Spar,supermarket,Zürich,Schaffhauserstrasse,239,8057,Mo-Fr 07:00-21:00; Sa 07:00-21:00
node,1012741733,47.6481179,9.1759674,Migros,supermarket,Kreuzlingen,Hauptstrasse,63,8280,"Mo-Fr 07:30-19:00, Sa 07:30-18:00; PH off"
node,1022612040,46.9232213,7.4142401,Migros,supermarket,Köniz,Bläuacker,10,3098,"Mo-Th 08:00-20:00, Fr 08:00-21:00, Sa 07:30-17:00; PH off"
node,1027136881,47.4256283,8.4969763,Coop,supermarket,Zürich,Mühlackerstrasse,199,8046,Mo-Sa 08:00-20:00
node,1041063962,46.5139141,6.6471599,Coop,supermarket,Lausanne,Chemin des Faverges,15,1006,"Mo-Fr 07:30-19:00, Sa 07:30-18:00"
node,1044553874,47.2421864,8.6556101,Coop,supermarket,Au,Alte Landstrasse,26,8804,Mo-Sa 07:30-20:00
node,1052078781,47.4193147,8.5568084,ALDI,supermarket,Zürich,Schärenmoosstrasse,77,8052,Mo-Sa 07:30-20:00
node,1053855927,47.1733025,8.5171183,Denner,supermarket,Zug,Baarerstrasse,22,6300,Mo-Fr 08:00-19:00;Th 08:00-21:00;Sa 08:00-17:00;PH closed
node,1069059529,47.0461309,8.3072505,Migros,supermarket,Luzern,Winkelriedstrasse,58,6003,Mo-Fr 08:00-19:00; Fr 08:00-20:00; Sa 08:00-17:00; PH off
node,1069059588,47.0465392,8.3068307,Coop,supermarket,Luzern,Winkelriedstrasse,56,6000,"Mo-We,Fr 07:00-19:00; Th 07:00-20:00; Sa 07:00-17:00; PH,Su off"
node,1072910460,47.4400546,8.2083483,Migros,supermarket,Lupfig,Flachsacherstrasse,17,5242,"Mo-Fr 08:00-19:00, Sa 08:00-18:00; PH off"
node,1080559663,47.0767246,8.3007278,Spar,supermarket,Emmen,Seetalstrasse,98,6032,"Mo,Tu,Th 07:00-18:30; We 07:00-19:30; Sa 07:00-16:00"
node,1083855663,47.019095,8.309215,Migros,supermarket,Horw,Gemeindehausplatz,14-15,6048,"Mo-Th 08:00-19:00, Fr 08:00-20:00, Sa 08:00-17:00; PH off"
node,1100335848,47.3374585,8.474882,Volg,supermarket,Wettswil,Kirchgasse,2,8907,Mo-Sa 06:30-20:00
node,1107499836,47.3109533,8.2511027,Volg,supermarket,Sarmenstorf,Im Zentrum,1e,5614,Mo-Fr 07:00-19:00; Sa 07:00-17:00
node,1120204904,47.5706583,9.365415,ALDI,supermarket,Romanshorn,Sonnenstrasse,9,8590,Mo-Sa 07:30-20:00
node,1139385119,47.1752994,8.6654156,Volg,supermarket,Hütten,Dorfstrasse,26,8825,"Mo-Fr 07:30-12:15, 14:00-19:00; Sa 07:30-14:00"
node,1142280066,47.1135161,7.8401905,Migros,supermarket,Huttwil,Bernstrasse,6,4950,"Mo-Th 08:00-19:00, Fr 08:00-21:00, Sa 07:30-17:00; PH off"
node,1145599864,47.0737083,8.2922426,Migros,supermarket,Emmenbrücke,Seetalstrasse,50,6020,"Mo-Th 09:00-19:00, Fr 09:00-21:00, Sa 08:00-17:00; PH off"
node,1151988853,46.9739266,8.4216419,Spar,supermarket,Buochs,Beckenriederstrasse,5,6374,Mo-Fr 07:30-19:00; Sa 07:30-17:00; Su 08:00-13:00
node,1151988887,46.9668962,8.4738582,Volg,supermarket,Beckenried,Kirchweg,10,6375,Mo-Sa 06:00-20:00; Su 08:00-18:00
node,1156328601,47.093926,8.2690493,Denner,supermarket,Rothenburg,Stationsstrasse,9,6023,Mo-Sa 08:00-18:30
node,1165255718,47.416306,8.1665132,Migros,supermarket,Wildegg,Bruggerstrasse,11c,5103,"Mo-Fr 08:00-19:00, Sa 08:00-18:00; PH off"
node,1168833492,47.5469654,7.5643633,Migros,supermarket,Basel,Neuweilerplatz,7,4054,Mo-Fr 08:00-19:00; Sa 08:00-18:00; PH off
node,1191792633,47.0898165,8.2738856,Migros,supermarket,Emmenbrücke,Kapfstrasse,3,6020,"Mo-Th 08:00-19:00, Fr 08:00-20:00, Sa 08:00-17:00; PH off"
node,1201325118,47.015424,7.4841326,Denner,supermarket,Moosseedorf,Sandstrasse,11a,3302,"Mo-Fr 08:00-12:30,14:00-19:00; Sa 08:00-17:00; Su,PH off"
node,1234617599,47.4804478,8.4643849,Migros,supermarket,Dielsdorf,Ruchwiesenstrasse,2,8175,Mo-Sa 08:00-20:00; PH off
node,1249802351,47.4929891,8.1878848,Volg,supermarket,Riniken,Hirschenstrasse,4,5223,"Mo-Fr 07:00-12:15,14:00-19:00; Sa 07:00-16:00"
node,1254632070,47.0374219,8.3282536,Migros,supermarket,Luzern,Langensandstrasse,23,6005,"Mo-Th 08:30-19:00, Fr 08:30-21:00, Sa 08:00-17:00; PH off"
node,1260438019,46.7063626,8.5993856,Volg,supermarket,Wassen,Gotthardstrasse,42,6484,"Mo-Fr 06:30-18:30; Sa 06:30-17:00; Su,PH off"
node,1263651484,47.484908,7.5476011,Migros,supermarket,Ettingen,Therwilerstrasse,9,4107,"Mo-Fr 08:00-19:00, Sa 08:00-17:00; PH off"
node,1278535198,47.1413116,8.4287189,Migros,supermarket,Rotkreuz,Buonaserstrasse,1,6343,"Mo-Th 07:30-19:00, Fr 07:30-20:00, Sa 07:30-17:00; PH off"
node,1287226888,47.0787878,7.3039734,Migros,supermarket,Lyss,Steinweg,28,3250,Mo-We 8:00-19:00; Th 8:00-20:00; Fr 8:00-21:00; Sa 7:30-17:00
node,1287601534,47.3986111,8.4593802,ALDI,supermarket,Schlieren,Wagistrasse,20,8952,Mo-Fr 09:00-20:00; Sa 09:00-18:00
node,1289493510,46.9226841,7.414845,ALDI,supermarket,Köniz,Stapfenstrasse,4,3098,Mo-Fr 08:00-20:00; Sa 08:00-17:00
node,1300463358,47.3970551,8.4490051,Coop,supermarket,Schlieren,Zürcherstrasse,6,8952,Mo-Fr 08:00-20:00; Sa 08:00-18:00
node,1300703154,47.556334,7.8467796,Migros,supermarket,Möhlin,Hauptstrasse,91,4313,"Mo-Th 08:00-19:00, Fr 08:00-20:00, Sa 08:00-18:00; PH off"
node,1301279165,47.3968583,8.4490817,Denner,supermarket,Schlieren,Uitikonerstrasse,9,8952,Mo-Fr 08:00-20:00; Sa 08:00-18:00
node,1305642720,47.46598,8.3273545,Aldi,supermarket,Wettingen,Landstrasse,99,5430,08:00-20:00; Sa 08:00-18:00; Su off
node,1311513812,47.4453371,8.3569372,Landi,supermarket,Würenlos,Grosszelgstrasse,18,5436,Mo-Fr 08:00-19:00; Sa 08:00-16:30; Su closed
node,1322305936,47.5452203,7.5887101999999995,Coop,supermarket,Basel,Güterstrasse,125,4053,Mo-Sa 07:00-22:00
node,1328399518,47.3444645,8.5307182,Denner,supermarket,Zürich,Etzelstrasse,6,8038,Mo-Sa 08:00-20:00
node,1328945987,47.485289,8.7627422,Migros,supermarket,Winterthur,Hinterdorfstrasse,40,8405,"Mo-We 08:00-19:00; Th,Fr 08:00-20:00; Sa 08:00-18:00; PH off"
node,1334477909,47.0605745,8.3155116,Migros,supermarket,Luzern,Mettenwylstrasse,2,6006,"Mo-Fr 08:00-12:15,13:30-19:00, Sa 08:00-17:00; PH off"
node,1340164438,46.832144,7.0651572,Denner,supermarket,Grolley,Rue du Centre,9,1772,"Mo-Fr 07:00-12:15,13:30-19:00; Sa 07:30-16:00; Su 08:00-12:00"
node,1347029585,47.1918481,8.721596,Migros,supermarket,Wollerau,Roosstrasse,23,8832,Mo-Sa 07:30-20:00; PH off
node,1349203126,47.3497143,8.7084917,Volg,supermarket,Uster,Krämerackerstrasse,22,8610,Mo-Fr 07:00-19:00; Sa 07:00-16:00
node,1351032263,47.0505994,8.2993724,Migros,supermarket,Luzern,Bruchstrasse,18,6003,Mo-Fr 08:00-19:00; Fr 08:00-20:00; Sa 08:00-17:00; PH off
node,1360452533,47.296677,8.2265203,Volg,supermarket,Meisterschwanden,Hauptstrasse,37,5616,Mo-Sa 06:00-20:00; Su 08:00-20:00
node,1362066985,47.2293522,8.8210549,Migros,supermarket,Rapperswil,Zürcherstrasse,4,8640,"Mo-Fr 09:00-20:00, Sa 09:00-18:00; PH off"
node,1365283471,47.4501609,9.6504457,Migros,supermarket,St. Margrethen SG,Neudorfstrasse,60,9430,"Mo-Th 09:00-19:00, Fr 09:00-21:00, Sa 09:00-17:00; PH off"
node,1369379077,47.0616861,8.274562,Migros,supermarket,Luzern,Ruopigenplatz,20,6015,"Mo-Th 08:00-19:00, Fr 08:00-20:00, Sa 08:00-17:00; PH off"
node,1370921194,47.4120314,8.6192722,Migros-Outlet,supermarket,Dietlikon,Industriestrasse,31,8305,"Mo-Fr 09:00-19:00, Sa 08:00-18:00; PH off"
node,1409406549,47.3592095,8.5856168,Migros,supermarket,Zürich,Witikonerstrasse,293,8053,Mo-Sa 08:00-20:00; PH off
node,1410077849,46.9487883,8.0153395,Migros,supermarket,Schüpfheim,Vormüli,1,6170,"Mo-Th 08:00-19:00, Fr 08:00-20:00, Sa 08:00-17:00; PH off"
node,1411316292,47.0838219,8.441276,Migros,supermarket,Küssnacht am Rigi,Siegwartstrasse,11,6403,"Mo-Fr 08:00-20:00, Sa 08:00-19:00; PH off"
node,1422052366,46.8762776,7.6212317,Migros,supermarket,Konolfingen,Thunstrasse,21,3510,"Mo-Th 08:00-19:00, Fr 08:00-20:00, Sa 07:30-17:00; PH off"
node,1423972051,46.5286424,6.5918877,Aldi,supermarket,Renens,Avenue de Longemalle,1,1020,Mo-Fr 07:30-19:00; Sa 07:30-17:00
node,1435694226,47.6552302,9.1642088,ALDI,supermarket,Kreuzlingen,Tägerwilerstrasse,2,8280,Mo-Sa 07:30-20:00
node,1435851429,47.5849461,7.6507584,Coop,supermarket,Riehen,Schmiedgasse,7/9,4125,Mo-Fr 07:00-19:00; Sa 07:30-18:00
node,1435927404,47.3166352,9.2819007,Coop,supermarket,Urnäsch,Schwägalpstrasse,1,9107,Mo-Fr 07:30-19:00;Sa 07:30-17:00
node,1454517274,47.7202328,8.6637223,Migros,supermarket,Schaffhausen,Stüdliackerstrasse,4,8207,"Mo-Fr 09:00-20:00, Sa 08:00-18:00; PH off"
node,1462150714,46.5278534,6.6160481,Migros,supermarket,Lausanne,Avenue d'Echallens,63,1004,Sa 07:30-18:00; Mo-Fr 07:30-19:00
node,1464394058,47.2599025,8.8532211,Denner,supermarket,Rüti (ZH),Dorfstrasse,44,8630,Mo-Sa 07:30-21:00
node,1490586102,47.0887222,7.5812188,Migros,supermarket,Kirchberg BE,Solothurnstrasse,17,3422,"Mo-Th 08:00-19:00, Fr 08:00-21:00, Sa 07:30-17:00; PH off"
node,1492836188,47.5126166,9.4324736,Migros,supermarket,Arbon,St. Gallerstrasse,6,9320,"Mo-Th 07:00-19:00, Fr 07:00-20:00, Sa 07:00-18:00; PH off"
node,1513116290,47.5690817,7.5905738,Coop,supermarket,Basel,Klybeckstrasse,142,4057,Mo-Fr 07:30-20:00; Sa 07:30-18:00
node,1517003750,47.1871962,8.4757328,ALDI,supermarket,Cham,Alte Steinhauserstrasse,10,6330,Mo-Th 07:30-19:00; Fr 07:30-21:00; Sa 07:30-17:00; PH off
node,1519474175,47.4851713,8.7631961,Denner,supermarket,Winterthur,Hinterdorfstrasse,40,8405,Mo-We 08:30-19:00; Th-Fr 08:30-20:00; Sa 08:00-18:00
node,1535109062,47.5024467,7.7251961,Migros,supermarket,Füllinsdorf,Ergolzstrasse,2,4414,Mo-Sa 08:00-20:00; PH off
node,1560009340,46.8968476,8.2498547,Migros,supermarket,Sarnen,Nelkenstrasse,5,6060,"Mo-Fr 08:00-20:00, Sa 08:00-18:00; PH off"
node,1575842960,46.9999926,8.6087819,Migros,supermarket,Brunnen,Bahnhofplatz,19,6440,"Mo-Fr 08:00-19:00, Sa 08:00-17:00"
node,1578335949,47.5391581,8.0453917,Volg,supermarket,Kaisten,Dorfstrasse,15,5082,Mo-Sa 06:00-21:00
node,1598176928,47.5435533,7.5921791,Migros,supermarket,Basel,Güterstrasse,180,4053,"Mo-Fr 07:30-20:00, Sa 07:30-18:00; PH off"
node,1598950812,47.5554994,7.6242091,Migros,supermarket,Birsfelden,Chrischonastrasse,2,4127,"Mo-Fr 08:00-19:00, Sa 07:30-18:00; PH off"
node,1598954903,47.55521,7.6138463,Coop,supermarket,Basel,Farnsburgerstrasse,37,4052,Mo-Fr 07:30-20:00; Sa 07:30-18:00
node,1606211122,47.4362085,8.2899101,Migros,supermarket,Fislisbach,Badenerstrasse,7d,5442,"Mo-Fr 08:00-19:00, Sa 08:00-18:00; PH off"
node,1608543461,47.3112966,8.5249665,Migros,supermarket,Adliswil,Albisstrasse,10,8134,Mo-Sa 08:00-20:00; PH off
node,1608543477,47.3123405,8.5243839,Denner,supermarket,Adliswil,Florastrasse,10,8134,Mo-Sa 07:00-20:00; Su 08:00-18:00
node,1611482000,46.9777078,8.4152878,Migros,supermarket,Buochs,Ennetbürgerstrasse,45,6374,"Mo-Fr 07:30-20:00, Sa 07:30-18:00; PH off"
node,1613212195,47.3498922,7.8986189,Migros,supermarket,Olten,Solothurnerstrasse,21,4600,Mo-Fr 08:00-18:30; Th 08:00-20:00; Sa 08:00-18:00; PH off
node,1631232337,47.3828706,7.9476765,Migros,supermarket,Lostorf,Hauptstrasse,20,4654,"Mo-Fr 08:00-18:30, Sa 08:00-17:00; PH off"
node,1635306340,47.1753504,8.900457,VOI,supermarket,Siebnen,Glarnerstrasse,36,8854,Mo-Sa 07:30-20:00; PH off
node,1640255398,46.4848816,7.5618229,Volg,supermarket,Adelboden,Bodenstrasse,38,3715,"Mo-Fr 07:00-12:15,13:30-18:30; Tu 07:00-12:15; Sa 07:00-17:00"
node,1647190952,47.5338528,7.6335935,Migros,supermarket,Muttenz,Lutzertstrasse,40,4132,"Mo-Fr 08:00-19:00, Sa 07:30-18:00; PH off"
node,1654123463,47.5531289,7.5503002,Migros,supermarket,Allschwil,Baslerstrasse,191,4123,"Mo-Fr 08:00-19:00, Sa 07:30-18:00; PH off"
node,1654126652,47.5514531,7.5381559,Coop,supermarket,Allschwil,Baslerstrasse,28,4123,Mo-Fr 07:30-19:00; Sa 07:30-18:00
node,1668864828,47.56926,7.5964884,Migros,supermarket,Basel,Efringerstrasse,32,4057,"Mo-Fr 08:00-19:00, Sa 07:30-18:00; PH off"
node,1675844179,47.3915068,8.0445514,Denner,supermarket,Aarau,Ziegelrain,1,5000,"Mo-We, Fr 08:00-19:00; Th 08:00-20:00; Sa 08:00-18:00"
node,1676132716,47.5081087,8.0191736,Migros,supermarket,Frick,Hauptstrasse,44,5070,"Mo-Fr 08:00-20:00, Sa 07:30-18:00; PH off"
node,1693414693,47.342789,8.483055,Coop,supermarket,Stallikon,Sellenbüren,61,8143,Mo-Fr 08:00-19:30;Sa 07:30-17:00
node,1702309786,47.3692207,8.5029311,Denner,supermarket,Zürich,Birmensdorferstrasse,406,8055,Mo-Fr 08:00-20:00; Sa 08:00-18:00
node,1702309790,47.3702412,8.5084445,Migros,supermarket,Zürich,Birmensdorferstrasse,320,8055,Mo-Sa 08:00-20:00; PH off
node,1702309814,47.370239,8.508715,Denner,supermarket,Zürich,Birmensdorferstrasse,320,8055,Mo-Sa 08:00-20:00
node,1716179686,47.4086853,8.5961649,Migros,supermarket,Wallisellen,Neue Winterthurerstrasse,99,8301,Mo-Sa 09:00-20:00; PH off
node,1722681316,46.9393448,7.3899387,Migros,supermarket,Bern,Bottigenstrasse,7,3018,"Mo-Th 08:00-19:00, Fr 08:00-20:00, Sa 08:00-17:00; PH off"
node,1733852562,47.4508486,8.5817962,Migros,supermarket,Kloten,Kirchgasse,5,8302,Mo-Sa 08:00-20:00; PH off
node,1738448253,47.5413237,7.5744326,Migros,supermarket,Binningen,Hauptstrasse,71,4102,"Mo-Fr 08:00-19:00, Sa 07:30-18:00; PH off"
node,1739677580,46.9842701,8.3115307,Migros,supermarket,Hergiswil NW,Seestrasse,15,6052,Mo-Fr 07:30-19:00; Sa 07:30-18:00; PH off
node,1739678692,46.9859583,8.3114928,Coop,supermarket,Hergiswil NW,Landweg,2,6052,Mo-Fr 07:30-20:00; Sa 08:00-18:00
node,1756956245,47.3702516,8.5371556,Coop,supermarket,Zürich,Bärengasse,16,8001,Mo-Fr 07:00-20:00; Sa 07:00-17:00
node,1768874527,47.3135644,8.9142536,Volg,supermarket,Gibswil,Tösstalstrasse,466,8498,Mo-Sa 06:30-19:30
node,1774376850,47.0936368,9.0595708,Migros,supermarket,Näfels,Oberdorf,44,8752,Mo-Sa 08:00-20:00; PH off
node,1781699424,47.4242927,9.3743594,Coop,supermarket,Sankt Gallen,Neugasse,48,9000,"Mo-We, Fr 07:00-19:00; Th 07:00-20:00; Sa 07:00-18:00"
node,1805821597,46.9742613,7.4851349,Migros,supermarket,Ittigen,Talweg,6,3063,"Mo-Th 08:00-19:00, Fr 08:00-20:00, Sa 07:30-17:00; PH off"
node,1825830257,47.4839643,7.7351577,Coop,supermarket,Liestal,Rathausstrasse,45,4410,Mo-Sa 08:00-19:00
node,1829792548,47.1830183,7.9814026,Landi,supermarket,Schötz,Schürmatt,3,6247,Mo-Th 08:00-19:00; Fr 08:00-20:00; Sa 08:00-17:00; PH off
node,1830151553,47.2144731,7.7841206,Migros,supermarket,Langenthal,Wiesenstrasse,28,4900,"Mo-Th 08:00-20:00, Fr 08:00-21:00, Sa 07:30-17:00; PH off"
node,1831310604,47.2353206,8.6375562,Migros,supermarket,Wädenswil,Rütistrasse,1,8820,Mo-Sa 08:00-19:00
node,1835590613,47.4038519,8.4974554,Migros,supermarket,Zürich,Regensdorferstrasse,20,8049,Mo-Sa 08:00-20:00; PH off
node,1841363712,47.4341523,8.5676371,Migros,supermarket,Glattbrugg,Wallisellerstrasse,8,8152,Mo-Sa 07:30-20:00; PH off
node,1841821791,47.0313468,8.3046528,Migros,supermarket,Luzern,Zihlmattweg,46,6005,"Mo-Th 08:00-19:00, Fr 08:00-20:00, Sa 08:00-17:00; PH off"
node,1845291678,47.190721,8.395948,Coop,supermarket,Sins,Luzernerstrasse,3,5643,Mo-Sa 07:30-20:00
node,1853993498,46.9323589,8.3906711,Volg,supermarket,Dallenwil,Stettlistrasse,11,6383,Mo-Sa 06:00-20:00; Su 08:00-18:00
node,1873142600,47.4504741,8.5381901,Aldi,supermarket,Rümlang,Hofwisenstrasse,42,8153,"Mo,Sa 07:30-20:00, Th 07:30-21:00, Tu,We 08:00-20:00, Fr 08:00-21:00"
node,1873142602,47.4507281,8.5374676,Migros,supermarket,Rümlang,Hofwisenstrasse,40a,8153,Mo-Sa 08:00-20:00; PH off
node,1884043282,46.8991663,7.661518,Volg,supermarket,Zäziwil,Thunstrasse,17,3532,Mo-Fr 06:00-20:00; Sa 07:00-17:00
node,1925758931,47.3707927,8.5158561,Coop,supermarket,Zürich,Birmensdorferstrasse,200,8003,Mo-Sa 07:30-21:00
node,1928241055,47.0288451,7.7465131,VOI,supermarket,Sumiswald,Spitalstrasse,10,3454,"Mo-Fr 07:30-19:00, Sa 07:30-17:00"
node,1936519335,46.1916389,6.1446885,Lidl,supermarket,Genève,Rue Prévost-Martin,61,1205,Mo-We 08:00-19:00; Th 08:00-21:00; Fr 08:00-19:30; Sa 08:00-18:00
node,1936565084,46.1931038,6.1435867,Migros,supermarket,Genève,Rue de Carouge,64,1205,Mo-We 08:00-19:00; Th-Fr 08:00-19:30; Sa 08:00-18:00
node,1939422056,46.8037059,7.1504196,Coop,supermarket,Fribourg,Rue Louis-d'Affry,4,1700,Mo-Sa 06:00-21:00; Su 07:00-19:00
node,1946649220,46.3187924,6.9620194,Lidl,supermarket,Aigle,Chemin de la Zima,5,1860,"Mo-Th 07:30-18:30; Fr 07:30-21:00; Sa 07:30-17:00; Su,PH off"
node,1951773716,46.1834404,6.1410491,Migros,supermarket,Carouge,Rue du Marché,16,1227,Mo-We 07:30-19:00; Th 07:30-20:00; Fr 07:30-19:30; Sa 07:30-18:00; Su off
node,1982799911,47.3615272,7.9002786,Coop,supermarket,Trimbach,Winznauerstrasse,5,4632,Mo-Fr 07:30-18:30; Sa 07:30-18:00
node,1982800776,47.3623825,7.8988142,VOI Migros Partner,supermarket,Trimbach,Chäppeligass,5,4632,"Mo-Fr 08:00-18:30, Sa 07:30-18:00; PH off"
node,1989668103,47.2004223,8.7932039,Migros,supermarket,Pfäffikon,Gwattstrasse,11,8808,"Mo-Fr 09:00-21:00, Sa 08:00-18:00; PH off"
node,2015282784,46.9024182,7.355913,Landi,supermarket,Thörishaus,Freiburgstrasse,888,3174,"Mo-Fr 08:00-12:00, 13:15-18:00; Sa 08:00-16:00"
node,2026453690,47.0405887,9.071002,Migros,supermarket,Glarus,Schweizerhofstrasse,6,8750,"Mo-Fr 08:00-19:00, Sa 08:00-18:00; PH off"
node,2029777183,47.4284996,8.5638978,Coop,supermarket,Glattbrugg,Talackerstrasse,68,8152,Mo-Sa 07:00-20:00
node,2029780256,47.4306614,8.5600017,Coop,supermarket,Glattbrugg,Europastrasse,4,8152,Mo-Fr 06:30-21:00; Sa 08:00-20:00
node,2045161980,47.5642867,9.3668176,Migros,supermarket,Romanshorn,Bahnhofstrasse,54a,8590,"Mo-Fr 08:00-19:00, Sa 08:00-18:00; PH off"
node,2065517375,47.7488071,8.7066278,Migros,supermarket,Thayngen,Biberstrasse,30,8240,"Mo-Fr 08:00-19:00, Sa 08:00-18:00; PH off"
node,2076304484,47.0905081,9.34507,Coop,supermarket,Flums,Marktstrasse,21,8890,Mo-Fr 08:00-19:00; Sa 07:30-18:00
node,2076304500,47.0969482,9.3547555,Lidl,supermarket,Flums,Lochrietstrasse,29,8890,"Mo-We, Fr 07:30-20:00; Th 07:30-21:00; Sa 07:30-18:00"
node,2077989547,47.2721282,8.3420052,Migros,supermarket,Muri AG,Kirchfeldstrasse,8,5630,"Mo-Th 08:00-19:00, Fr 08:00-20:00, Sa 07:30-18:00; PH off"
node,2078772343,47.4561995,8.439926700000001,VOI,supermarket,Buchs ZH,Meierwiesenstrasse,20,8107,"Mo-Fr 06:15-19:00, Sa 07:30-18:00; PH off"
node,2078966780,47.0883439,8.1126209,Denner,supermarket,Ruswil,Rüediswilerstrasse,79,6017,"Mo-Th 08:00-19:00, Fr 08:00-20:00, Sa 08:00-17:00; PH off"
node,2078966782,47.0882122,8.1128659,Migros,supermarket,Ruswil,Rüediswilerstrasse,79,6017,"Mo-Th 08:00-19:00, Fr 08:00-20:00, Sa 08:00-17:00; PH off"
node,2081034362,47.2915021,7.9422753,Migros,supermarket,Zofingen,Aarburgerstrasse,5,4800,"Mo-We 08:00-19:00, Th-Fr 08:00-20:00, Sa 07:30-20:00; PH off"
node,2090983741,47.16526,8.5151339,Migros,supermarket,Zug,Grabenstrasse,5,6300,"Mo-Fr 08:00-19:00, Sa 08:00-17:00; PH off"
node,2095618278,47.4388833,9.5363312,Migros,supermarket,Heiden,Sonnentalstrasse,2,9410,Mo-Fr 07:30-19:00; Sa 07:30-18:00; Su off
node,2101891421,46.6235066,8.0389416,VOI Migros Partner,supermarket,Grindelwald,Dorfstrasse,155,3818,"Mo-Fr 08:00-12:30,14:00-19:00, Sa 08:00-19:00, Su 10:00-19:00"
node,2102717803,47.6017772,8.6885448,Migros,supermarket,Kleinandelfingen,Weinlandstrasse,4,8451,Mo-Fr 08:00-20:00; Sa 08:00-19:00; PH off
node,2105814888,47.5573491,7.5748998,ALDI,supermarket,Basel,Türkheimerstrasse,4-6,4055,Mo-Fr 08:00-20:00; Sa 08:00-18:00
node,2118018216,47.1919808,8.8297452,Denner,supermarket,Altendorf,Dorfplatz,2,8852,"Mo-Fr 07:00-12:00,14:00-18:30; Sa 07:00-16:00"
node,2119357764,47.281642,8.620059,Volg,supermarket,Feldmeilen,Bünishoferstrasse,152,8706,"Mo-Fr 08:00-12:30,14:30-18:30; Sa 08:00-16:00"
node,2130863933,46.4691957,8.2417974,Volg,supermarket,Reckingen,Furkastrasse,452,3998,06:00-19:00
node,2135356800,47.4813549,7.7308043,Volg,supermarket,Liestal,Oristalstrasse,28,4410,Mo-Sa 06:00-22:00
node,2177181921,46.7830515,9.684805,Coop,supermarket,Arosa,Poststrasse,16,7050,Mo-Sa 08:00-19:00; Su 09:00-18:00
node,2186836035,46.4169304,6.2764546,Migros,supermarket,Gland,Rue Mauverney,22,1196,Mo-Sa 08:00-19:00
node,2188913027,46.200608,6.130988,Denner,supermarket,Genève,Boulevard Carl-Vogt,12,1205,Mo-We 07:30-19:00; Th 07:30-20:00; Fr 07:30-19:30; Sa 07:30-18:00
node,2196483257,47.2796082,7.3993482,Landi,supermarket,Belprahon,Dos les Terras,3,2744,Mo-Fr 08:00-18:30; Sa 08:00-17:00
node,2228946682,47.3003679,8.5488069,Migros,supermarket,Rüschlikon,Zürcherstrasse,4,8803,Mo-Sa 08:00-20:00; PH off
node,2264702137,47.3874101,8.4889206,Coop,supermarket,Zürich,Badenerstrasse,650,8048,Mo-Sa 07:30-20:00
node,2277983292,46.9491034,7.4094765,ALDI,supermarket,Bern,Murtenstrasse,143,3008,Mo-Fr 07:30-20:00; Sa 07:30-17:00
node,2286976913,47.2362329,7.7718741,VOI Migros Partner,supermarket,Aarwangen,Langenthalstrasse,44,4912,"Mo-Fr 08:00-19:00, Sa 08:00-17:00; PH off"
node,2289483628,47.336624,8.6191373,Migros,supermarket,Zumikon,Dorfstrasse,17,8126,Mo-Fr 08:00-20:00; Sa 08:00-18:00; PH off
node,2289485720,47.3365173,8.619027299999999,Denner,supermarket,Zumikon,Dorfstrasse,17,8126,Mo-Fr 08:00-20:00; Sa 08:00-18:00; PH off
node,2297683318,47.3167934,7.6953332,Migros,supermarket,Balsthal,Goldgasse,13,4710,"Mo-Th 08:00-18:30, Fr 08:00-20:00, Sa 07:30-18:00; PH off"
node,2302870551,46.8206371,8.4047956,Coop,supermarket,Engelberg,Titliszentrum,5,6390,"Mo-Fr 07:30-20:00, We 09:00-18:00, Sa 07:30-18:00, Su 09:00-18:00"
node,2323174782,47.3777313,8.5347195,Coop,supermarket,Zürich,Europaallee,5,8004,Mo-Fr 06:30-21:00; Sa 07:30-21:00
node,2330421254,47.3882833,8.4875671,Migros,supermarket,Zürich,Altstetterstrasse,145,8048,Mo-Sa 08:00-20:00; PH off
node,2341959630,47.4423777,9.4693669,Volg,supermarket,Eggersriet,Im Ried,2,9034,Mo-Sa 06:00-21:00
node,2352057195,47.2314125,8.8364452,Coop,supermarket,Jona,Allmeindstrasse,17,8645,Mo-Fr 07:30-20:00; Sa 07:30-18:00
node,2352059118,47.2314561,8.8372849,Migros,supermarket,Jona,Molkereistrasse,5,8645,"Mo-Fr 07:30-20:00, Sa 07:30-18:00; PH off"
node,2352059782,47.2312974,8.8372862,Denner,supermarket,Jona,Molkereistrasse,3,8645,Mo-Th 07:30-20:00; Sa 07:30-18:00
node,2365968440,47.6844221,8.6274517,Spar,supermarket,Flurlingen,Gründenstrasse,5,8247,Mo-Sa 07:00-19:00
node,2375333014,47.5949613,8.6795131,Volg,supermarket,Andelfingen,Thurtalstrasse,3,8450,Mo-Fr 07:00-19:00; Sa 07:00-17:00
node,2398356753,46.265381,6.9563938,Migros,supermarket,Collombey,Zone Artisanale Entre deux Fossaux,2,1868,Mo-Th 07:30-18:30; Fr 07:30-21:00; Sa 07:30-17:00
node,2401239033,47.3733668,8.0031319,Migros,supermarket,Schönenwerd,C. F. Ballystrasse,14,5012,Mo-Fr 08:00-18:30; Th 08:00-20:00; Sa 07:30-18:00; PH off
node,2402905767,47.3154794,9.0836646,Landi,supermarket,Wattwil,Floozstrasse,7,9630,Mo-Fr 08:00-18:30; Sa 08:00-17:00
node,2419669814,47.5211702,8.5405201,Migros,supermarket,Bülach,Bahnhofstrasse,28,8180,"Mo-Fr 08:00-20:00, Sa 08:00-18:00; PH off"
node,2451974131,46.5307735,6.5982907,Migros,supermarket,Renens,Avenue de Florissant,38,1020,Mo-Fr 08:00-19:00; Sa 07:30-17:00
node,2457750332,47.4567151,8.4388945,Denner,supermarket,Buchs ZH,Fliederweg,2,8107,Tu-Fr 07:30-19:00; Sa 07:30-17:00
node,2470508407,46.0217606,7.7481937,Migros,supermarket,Zermatt,Hofmattstrasse,12,3920,Mo-Su 08:00-19:00
node,2485517212,47.5800952,7.5961798,Migros,supermarket,Basel,Hochbergerstrasse,70,4057,"Mo-Fr 09:00-20:00, Sa 09:00-18:00; PH off"
node,2492051833,47.2292135,8.8206472,Denner,supermarket,Rapperswil SG,Zürcherstrasse,4,8640,Mo-Fr 09:00-20:00;Sa 09:00-18:00
node,2505746262,47.3849797,8.6587805,VOI,supermarket,Schwerzenbach,Bahnstrasse,14,8603,Mo-Sa 07:00-20:00; PH off
node,2533251313,47.1169875,8.1995094,Migros,supermarket,Sempach Station,Mettenwilstrasse,11,6203,"Mo-Th 07:30-19:00, Fr 07:30-20:00, Sa 07:30-17:00; PH off"
node,2570294608,47.1229269,7.9948698,Denner,supermarket,Willisau,Kreuzstrasse,6,6130,Mo-Th 07:30-19:00; Fr 07:30-20:00; Sa 07:30-17:00; PH off
node,2570311006,47.1916974,8.8551943,Migros,supermarket,Lachen,Feldstrasse,6,8853,"Mo-Fr 08:00-20:00, Sa 08:00-18:00; PH off"
node,2577144568,47.5235181,7.6452237,Volg,supermarket,Muttenz,Hauptstrasse,11,4132,Mo-Sa 06:00-21:00
node,2578613547,47.3119015,8.0499663,Spar,supermarket,Schöftland,Holzikerstrasse,8,5040,Mo-Fr 07:00-19:00; Sa 07:00-17:00
node,2594028784,47.5596697,8.9011135,Migros,supermarket,Frauenfeld,Zürcherstrasse,227,8500,"Mo-Fr 07:00-19:00, Sa 08:00-18:00; PH off"
node,2600919984,46.9815929,8.3103345,Coop,supermarket,Hergiswil NW,Bahnhofstrasse,2,6052,"Mo-Fr 07:30-20:00, Sa 07:30-18:00"
node,2619445083,47.4601989,9.3889006,Migros,supermarket,Wittenbach,Oedenhof 1c,80-86,9300,Mo-We 08:00-19:00; Th 08:00-20:00; Fr 08:00-19:00; Sa 07:30-17:00; Su off
node,2637958553,47.5397111,8.8226081,Volg,supermarket,Gundetswil,Hauptstrasse,12,8543,Mo-Fr 06:00-18:30; Sa 07:30-12:00
node,2639842919,47.5570481,8.8961082,Migros,supermarket,Frauenfeld,Bahnhofplatz,70-72,8500,"Mo-Fr 08:00-20:00, Sa 08:00-18:00; PH off"
node,2642259706,46.8796927,8.6417406,Migros,supermarket,Altdorf UR,Gitschenstrasse,14,6460,"Mo-Th 07:30-18:30, Fr 07:30-21:00, Sa 07:30-17:00"
node,2663868342,47.5705925,7.5733682,Coop,supermarket,Basel,Vogesenplatz,10,4056,Mo-Fr 07:30-20:00; Sa 07:30-18:00
node,2697715693,46.9581417,8.3685356,Coop,supermarket,Stans,Buochserstrasse,4-6,6370,Mo-Fr 07:00-18:00; Sa 07:00-17:00
node,2745111745,46.4779593,8.8001178,Migros,supermarket,Faido,Via Pian della Croce,2,6760,"Mo-We, Fr 08:00-18:30, 09:00-18:00; Th 08:00-12:30, 14:00-20:00; Sa 08:00-18:00"
node,2749698307,47.2395287,7.8220859,VOI Migros Partner,supermarket,Roggwil,Dorfstrasse,19,4914,"Mo-Fr 08:00-19:00, Sa 07:30-17:00"
node,2757540857,47.3280334,8.7997978,Migros,supermarket,Wetzikon (ZH),Bahnhofstrasse,151,8620,"Mo-Fr 08:00-20:00, Sa 08:00-19:00; PH off"
node,2769900453,47.2039424,9.4425991,Volg,supermarket,Gams,Haagerstrasse,4,9473,Mo-Fr 06:30-19:00; Sa 06:30-17:00
node,2778506649,46.8207411,8.4056705,Migros,supermarket,Engelberg,Klosterstrasse,5,6390,"Mo-Fr 07:30-19:00, Sa 07:30-18:00"
node,2835662016,46.7874403,7.0766075,ALDI,supermarket,Avry-sur-Matran,Route de Matran,5,1754,Mo-We 08:00-19:00; Th 08:00-21:00; Fr 08:00-19:00; Sa 08:00-16:00
node,2853884273,46.686348100000004,7.8929517,Volg,supermarket,Bönigen,Interlakenstrasse,4,3806,Mo-Fr 07:00-20:00; Sa 07:00-19:00; Su 08:00-19:00
node,2857736035,47.405948,8.5918795,ALDI,supermarket,Zürich,Ueberlandstrasse,441,8051,Mo-Sa 08:00-20:00; Th 07:30-21:00
node,2859941184,47.2748374,8.9147401,Migros,supermarket,Wald ZH,Bahnhofstrasse,22,8636,"Mo-Fr 08:00-20:00, Sa 08:00-19:00; PH off"
node,2861905086,47.5527545,7.9874285,Volg,supermarket,Sisseln,Hauptstrasse,17,4334,"Mo-Fr 06:00-12:15,13:30-19:00, Sa 07:00-13:00; PH off"
node,2866713901,47.0504061,8.550274,Coop,supermarket,Goldau,Centralstrasse,5,6410,Mo-Sa 07:30-20:00
node,2866812512,47.0508444,8.5509558,Migros,supermarket,Goldau,Parkstrasse,25,6410,"Mo-Th 08:00-19:00, Fr 08:00-20:00, Sa 08:00-18:00; PH off"
node,2896617088,46.9547239,7.5478924,VOI Migros Partner,supermarket,Boll,Kernstrasse,9,3067,Mo-Fr 08:00-19:00; Sa 08:00-17:00; PH off
node,2896643846,47.1371274,7.9281581,Migros,supermarket,Zell,Zelgmatte,2,6144,"Mo-Th 08:00-19:00, Fr 08:00-20:00, Sa 08:00-17:00; PH off"
node,2904986747,47.4220044,9.5526165,Volg,supermarket,Oberegg,Dorfstrasse,26b,9413,Mo-Sa 06:00-20:00
node,2915808779,46.9286907,7.4503218,Coop,supermarket,Köniz,Seftigenstrasse,240,3084,Mo-Fr 08:00-20:00; Sa 08:00-17:00
node,2918518072,46.2461181,8.7061659,Denner,supermarket,Maggia,Al Stradón da Magia,75,6673,Mo-Fr 08:00-18:30; Sa 08:00-17:00; Su off
node,2926480163,47.0092507,8.4835565,Volg,supermarket,Vitznau,Seestrasse,73,6354,24/7
node,2927936198,47.4092106,8.40508,Migros,supermarket,Dietikon,Überlandstrasse,22,8953,Mo-Sa 08:00-20:00; PH off
node,2955480109,46.2649234,6.9563805,Lidl,supermarket,Collombey,Zone Artisanale Entre deux Fossaux,2,1868,"Mo-Th 07:30-18:30; Fr 07:30-21:00; Sa 07:30-17:00; Su,PH off"
node,2955480112,46.2661867,6.9560708,Aldi,supermarket,Collombey,Zone Artisanale Entre deux Fossaux,8,1868,Mo-Th 07:30-18:30; Fr 07:30-21:00; Sa 07:30-17:00
node,2984223833,47.3862472,8.4994783,Coop,supermarket,Zürich,Baslerstrasse,50,8048,Mo-Sa 09:00-20:00
node,3000097561,47.329774,8.5152768,VOI Migros Partner,supermarket,Zürich,Ankenweid,10,8041,Mo-Sa 07:30-20:00; PH off
node,3021856041,47.3581733,8.5179549,Denner,supermarket,Zürich,Giesshübelstrasse,65,8045,Mo-Sa 08:00-20:00
node,3068068854,47.0980518,8.2051315,Migros,supermarket,Neuenkirch,Luzernstrasse,16,6206,"Mo-Th 07:30-19:00, Fr 07:30-20:00, Sa 07:30-17:00; PH off"
node,3074836889,47.5197252,9.2590664,Volg,supermarket,Zihlschlacht,Hauptstrasse,30,8588,Mo-Fr 06:00-19:30; Sa 07:00-17:00; PH off
node,3077355645,47.4010731,8.6035456,Migros,supermarket,Dübendorf,Neugutstrasse,83,8600,"Mo-Fr 09:00-20:00, Sa 09:00-18:00; PH off"
node,3111679875,46.9788526,8.4161637,Coop,supermarket,Buochs,Nähseydi,6,6374,Mo-Th 07:30-20:00; Fr 07:30-21:00; Sa 07:30-20:00; Su off; PH off
node,3115568662,47.3502682,8.7154415,Denner,supermarket,Uster,Zürichstrasse,14,8610,Mo-Su 08:00-20:00
node,3127363702,47.3724083,9.1963914,Migros,supermarket,Degersheim,Hauptstrasse,81,9113,"Mo-Fr 08:00-19:00, Sa 07:30-17:00; PH off"
node,3148801527,46.9654611,8.3549116,Migros,supermarket,Stans,Bitzistrasse,2,6370,"Mo-Fr 09:00-20:00, Sa 08:00-18:00; PH off"
node,3153853234,46.9359607,7.41655,Spar,supermarket,Köniz,Könizstrasse,155,3097,"Mo-Fr 06:30-20:00; Sa 08:00-17:30; PH,Su off"
node,3169039073,46.5278485,8.6078787,Denner,supermarket,Airolo,Via della Stazione,4,6780,"Mo-Fr 07:30-12:00,13:30-18:30; Sa 07:30-18:00"
node,3203327404,46.9750321,7.4374791,Migros,supermarket,Bremgarten bei Bern,Kalchackerstrasse,9,3047,"Mo-Th 08:00-19:00, Fr 08:00-20:00, Sa 08:00-17:00; Su,PH closed"
node,3230695787,46.9738875,7.4966669,Coop,supermarket,Bolligen,Dorfmärit,19,3065,Mo-Fr 08:00-18:30;Sa 07:30-17:00
node,3292349968,46.9677982,9.5618886,Migros,supermarket,Landquart,Bahnhofstrasse,54,7302,Mo-Fr 07:00-19:30; Sa 08:00-18:00
node,3294363493,47.1830894,7.5617992,Migros,supermarket,Biberist,Hauptstrasse,21,4562,"Mo-Th 08:00-18:30, Fr 08:00-20:00, Sa 07:30-18:00; PH off"
node,3303882792,47.4313942,9.3963374,Migros,supermarket,St.Gallen,Rorschacherstrasse,150,9000,Mo-Fr 08:30-19:00; Th 08:30-20:00; Sa 08:00-17:00
node,3307607470,45.8702355,8.9860348,Migros,supermarket,Mendrisio,Via Luigi Lavizzari,2,6850,Mo-We 08:00-19:00; Th 08:00-20:00; Fr-Sa 08:00-19:00
node,3315683897,47.0528339,8.282553,Denner,supermarket,Luzern,Bernstrasse,110,6003,Mo-Fr 08:00-18:30; Sa 08:00-16:00
node,3324296281,47.4172408,9.3162485,Migros,supermarket,Abtwil,Wiesenbachstrasse,7,9030,"Mo-Th 08:00-19:00, Fr 08:00-21:00, Sa 07:30-17:00; PH off"
node,3328715493,46.7953397,10.295286,Coop,supermarket,Scuol,Stradun,403A,7550,Mo-Fr 08:00-19:00; Sa 08:00-18:00
node,3339747629,46.9436649,7.4062121,Denner,supermarket,Bern,Europaplatz,1,3008,"Mo-Fr 07:00-20:00, Sa 08:00-17:00"
node,3339748067,46.9435008,7.4060311,Coop,supermarket,Bern,Europaplatz,1,3008,Mo-Fr 07:00-20:00; Sa 08:00-17:00
node,3340396491,47.342353,7.3176589,Volg,supermarket,Courtételle,Rue du Préfet Comte,1,2852,Mo-Fr 06:00-18:30; Sa 06:00-17:00
node,3346518652,45.8628378,8.9724493,Migros,supermarket,Mendrisio,Via Campagna Adorna,15,6850,Mo-Sa 08:00-19:00; Th 08:00-21:00
node,3357711554,47.0035487,7.1070327,VOI Migros Partner,supermarket,Ins,Moosgasse,8,3232,Mo-Fr 08:00-19:00; Sa 07:30-17:00
node,3358847508,47.4389455,9.0567001,Migros,supermarket,Kirchberg SG,Wilerstrasse,204,9533,"Mo-Fr 07:00-19:00, Sa 07:00-17:00; PH off"
node,3381351765,47.4211326,8.557843,Migros,supermarket,Opfikon,Thurgauerstrasse,106,8152,Mo-Sa 08:00-20:00; PH off
node,3393874745,46.9370917,7.3868156,Denner,supermarket,Bern,Mädergutstrasse,5,3018,"Mo-Fr 08:00-18:30, Sa 08:00-17:00; Su,PH closed"
node,3398020246,46.9739799,7.4851302,Denner,supermarket,Ittigen,Talweg,6,3063,Mo-Th 08:00-19:00;Fr 08:00-20:00;Sa 08:00-17:00
node,3400417391,47.5509982,7.5503747,Denner,supermarket,Allschwil,Steinbühlweg,13,4123,Mo-Fr 08:00-18:30; Sa 07:30-17:00
node,3402707242,47.6637357,8.9761081,Migros,supermarket,Steckborn,Im Feldbach,1b,8266,Mo-Fr 08:00-20:00; Sa 08:00-19:00; PH off
node,3411580274,47.4210328,8.5577826,Denner,supermarket,Glattbrugg,Thurgauerstrasse,106,8152,Mo-Sa 08:00-20:00
node,3419891094,47.1333841,7.2419094,Aldi,supermarket,Biel/Bienne,Bahnhofplatz,2a,2504,Mo-Fr 08:00-20:00; Sa 08:00-18:00; Su 09:00-18:00
node,3420030703,47.1347572,7.2490752,Denner,supermarket,Biel/Bienne,Silbergasse,40,2503,Mo-We 08:00-19:00; Th 08:00-20:00; Fr 08:00-19:00; Sa 08:00-17:00; Su off
node,3421417547,46.9566476,8.3661994,VOI,supermarket,Stans,Marktgasse,2,6370,"Mo-Fr 07:00-18:30, Sa 07:00-16:00; PH off"
node,3421784529,47.3998195,8.441601,Coop,supermarket,Schlieren,Goldschlägiplatz,5,8952,Mo-Sa 07:30-20:00; PH off
node,3437975720,47.0179706,7.2335616,Denner,supermarket,Kallnach,Oberfeld,8a,3283,Mo-Fr 07:00-19:00; Sa 08:00-17:00; Su 09:00-17:00
node,3468146915,46.9264276,7.4551194,ALDI,supermarket,Wabern,Seftigenstrasse,310,3084,"Mo-Fr 08:00-20:00, Sa 08:00-17:00"
node,3468336169,46.933398,7.4197151,Denner,supermarket,Köniz,Waldeggstrasse,30,3097,Mo-Fr 07:00-20:00; Sa 08:00-17:00
node,3503429368,47.3901062,8.5086792,Migros,supermarket,Zürich,Pfingstweidstrasse,101,8005,"Mo-Fr 07:00-19:00, Sa 08:00-16:00; PH off"
node,3510810512,47.0154045,8.6458641,Migros,supermarket,Ibach,Mythencenterstrasse,18,6438,"Mo-Th 09:00-20:00, Fr 09:00-21:00, Sa 08:00-18:00"
node,3517026849,46.8655618,7.1201149,Migros,supermarket,Courtepin,Route de l'Industrie,25,1784,Mo-We 08:00-19:00; Th 08:00-21:00; Fr 08:00-19:00; Sa 08:00-16:00
node,3521305464,47.1808058,7.3629126,VOI Migros Partner,supermarket,Lengnau BE,Bielstrasse,35,2543,"Mo-Fr 07:30-19:00, Sa 07:30-17:00; PH off"
node,3522302390,47.6539707,9.1417651,Migros,supermarket,Tägerwilen,Hauptstrasse,117,8274,"Mo-Fr 08:00-20:00, Sa 08:00-18:00; PH off"
node,3536981995,47.3065539,7.8868376,Migros,supermarket,Rothrist,Neue Aarburgerstrasse,20,4852,"Mo-Fr 08:00-20:00, Sa 08:00-18:00; PH off"
node,3546943157,47.6620719,8.7031861,Volg,supermarket,Schlatt (TG),Frauenfelderstrasse,65;67,8252,Mo-Fr 06:30-19:30; Sa 06:30-17:00
node,3566917455,47.3960944,8.4378172,Migros,supermarket,Schlieren,Badenerstrasse,57,8952,"Mo-Fr 08:00-20:00, Sa 08:00-18:00; PH off"
node,3576197233,45.9193343,8.9852892,Migros,supermarket,Melano,Via Cantonale,89,6818,Mo-Fr 08:00-18:30; Sa 08:00-18:00
node,3582021500,47.4033485,8.4979498,Alnatura,supermarket,Zürich,Kappenbühlweg,5,8049,Mo-Sa 08:00-19:00; PH off
node,3620803915,47.2051661,8.7066561,ALDI,supermarket,Richterswil,Zugerstrasse,1,8805,Mo-Fr 08:00-20:00; Sa 08:00-18:00
node,3653968759,47.3911135,8.5081865,Coop,supermarket,Zürich,Pfingstweidstrasse,106,8005,Mo-Fr 06:30-21:00; Sa 08:00-21:00
node,3660132903,47.3707333,8.0823196,Migros-Outlet,supermarket,Suhr,Hintere Bahnhofstrasse,3,5034,"Mo-Fr 09:00-18:30, Sa 09:00-16:00; PH off"
node,3661375747,47.2540111,8.8528515,Migros-Outlet,supermarket,Rüti ZH,Werkstrasse,43,8630,"Mo-Fr 08:00-19:00, Sa 08:00-17:00; PH off"
node,3666285010,47.4801222,8.4634119,Denner,supermarket,Dielsdorf,Ruchwiesenstrasse,2,8175,08:00-20:00; Su off; Aug 1 off
node,3685497880,46.4603251,6.8451542,Coop,supermarket,Vevey,Rue du Simplon,28,1800,Mo-Th 08:00-18:30; Fr 08:00-20:00; Sa 08:00-17:00
node,3687545703,47.4705382,8.4023114,Volg,supermarket,Boppelsen,Otelfingerstrasse,2,8113,Mo-Fr 06:00-19:30; Sa 07:00-19:30; Su off
node,3700506692,47.3543413,7.9344497,VOI Migros Partner,supermarket,Dullikon,Grundstrasse,1,4657,"Mo-Fr 07:30-18:30, Sa 07:30-18:00; PH off"
node,3718116857,46.8016213,9.8326111,Migros,supermarket,Davos,Promenade,105,7270,Mo-Fr 08:00-20:00; Sa 08:00-19:00
node,3721143528,47.3359942,8.5190003,Migros,supermarket,Zürich,Leimbachstrasse,23,8041,Mo-Sa 07:30-20:00; PH off
node,3732510103,47.4103235,8.5428255,Lidl,supermarket,Zürich,Hofwiesenstrasse,350,8050,Mo-Sa 07:30-20:00; PH off
node,3762285282,47.3368563,8.0244577,Denner,supermarket,Kölliken,Hauptstrasse,24,5742,Mo-Fr 07:30-20:00; Sa 07:30-19:00; Su 09:00-16:00
node,3784153202,46.8213341,8.6505504,Denner,supermarket,Erstfeld,Gotthardstrasse,104,6472,Mo-Fr 07:30-18:30; Sa 07:30-17:00
node,3812339377,47.4899894,8.2444306,Migros,supermarket,Gebenstorf,Wambisterstrasse,2,5412,"Mo-Fr 08:00-20:00, Sa 08:00-18:00; PH off"
node,3826674661,47.1553222,7.2812681,Migros,supermarket,Biel/Bienne,Sportallee,20,2503,"Mo-We 09:00-19:00, Th-Fr 09:00-20:00, Sa 08:00-17:00; PH off"
node,3831331529,47.2571775,8.8501182,Coop,supermarket,Rüti ZH,Bandwiesstrasse,11,8630,Mo-Sa 07:30-20:00
node,3831772784,47.4991633,8.7211532,Migros,supermarket,Winterthur,Strickerstrasse,3,8400,"Mo-Fr 08:00-20:00, Sa 08:00-18:00; PH off"
node,3846698659,47.312271,7.9216331,Migros,supermarket,Oftringen,Zürichstrasse,2,4665,"Mo-We 08:00-19:00, Th-Fr 08:00-20:00, Sa 07:30-18:00; PH off"
node,3847638104,47.1955485,8.5248613,Migros,supermarket,Baar,Bahnhofstrasse,5,6340,"Mo-Th 07:30-19:00, Fr 07:30-21:00, Sa 07:30-17:00; PH off"
node,3889694721,47.0338678,8.4262703,Migros,supermarket,Weggis,Luzernerstrasse,44,6353,"Mo-Fr 07:30-19:00, Sa 07:30-17:00, Su 07:30-12:00"
node,3902835036,47.0337643,8.2826546,Migros,supermarket,Kriens,Luzernerstrasse,30,6010,"Mo-Th 08:00-19:00, Fr 08:00-21:00, Sa 08:00-17:00; PH off"
node,3902888438,47.0343833,8.2731116,Coop,supermarket,Kriens,Hobacherweg,2,6010,"Mo,Tu,Th 08:00-18:30; We,Fr 08:00-20:00; Sa 07:30-16:00"
node,3922276285,46.5272252,6.6024522,Migros,supermarket,Prilly,Chemin du Viaduc,1,1008,Mo-Fr 08:00-19:00; Sa 07:30-18:00
node,3993563850,46.9035361,7.239706,Denner,supermarket,Laupen BE,Krautgasse,8,3177,Mo-Fr 08:00-12:15; 14:00-18:45; Sa 08:00-16:00
node,3999473220,46.831741,6.6566148,Denner,supermarket,Champagne,Rue des Chèzeaux,12,1424,"Mo-Fr 07:45-12:15,13:30-18:30;Sa 08:00-17:00"
node,4039021088,46.9489976,7.4375343,Coop,supermarket,Bern,Bahnhofplatz,10,3011,"Mo-We, Fr 06:00-20:00; Th 06:00-21:00; Sa 07:00-17:00"
node,4058187728,47.4497981,8.5317229,VOI Migros Partner,supermarket,Rümlang,Lindenstrasse,16,8153,Mo-Fr 08:00-19:00; Sa 08:00-18:00; PH off
node,4058248551,47.5001167,8.73193,Migros,supermarket,Winterthur,Stadthausstrasse,31,8400,"Mo-Fr 07:00-20:00, Sa 08:00-18:00; PH off"
node,4062279173,47.1269137,8.2497249,Migros,supermarket,Rain,Gääli,6,6026,"Mo-Th 08:00-19:00, Fr 08:00-20:00, Sa 08:00-17:00; PH off"
node,4064880425,47.5655732,8.9047502,Migros,supermarket,Frauenfeld,Langfeldstrasse,53a,8500,"Mo-Fr 08:00-20:00, Sa 08:00-19:00; PH off"
node,4069816589,46.945398,7.4268297,Coop,supermarket,Bern,Brunnmattstrasse,20,3007,Mo-Fr 07:00-20:00; Sa 07:00-17:00; Su off
node,4072132589,47.2436924,8.4614753,Spar,supermarket,Mettmenstetten,Bahnhofstrasse,6/8,8932,Mo-Sa 07:00-20:00
node,4095400190,47.4979013,8.7247563,ALDI,supermarket,Winterthur,Archplatz,2,8400,Mo-Sa 08:00-20:00
node,4134072648,47.2623359,7.6609917,Volg,supermarket,Oberbipp,Obisgasse,7,4538,Mo-Fr 06:00-20:00; Sa 07:30-17:00; Su 07:30-12:30
node,4135620173,46.7620117,7.2088514,Coop,supermarket,Giffers,Dorfstrasse,15,1735,Mo-Fr 07:00-19:00; Th off; Sa 07:00-16:00
node,4142717258,46.8740832,7.5599771,ALDI,supermarket,Münsingen,Bahnhofplatz,1,3110,Mo-Fr 08:00-20:00; Sa 08:00-17:00
node,4161853017,47.2889646,7.719135,Migros,supermarket,Oensingen,Mühlefeldstrasse,53,4702,Mo-Fr 08:00-18:30; Th 08:00-20:00; Sa 08:00-18:00; PH off
node,4171699491,47.3750326,8.5361427,Alnatura,supermarket,Zürich,Löwenstrasse,31,8001,Mo-Sa 08:00-20:00; PH off
node,4176799676,47.3552792,8.7131617,Coop,supermarket,Uster,Winterthurerstrasse,22,8610,Mo-Sa 08:00-20:00
node,4205801489,47.4089295,8.5437302,Aldi,supermarket,Zürich,Baumackerstrasse,35,8050,Mo-Sa 08:00-20:00
node,4206582889,47.4073192,8.5485107,Denner,supermarket,Zürich,Schwamendingenstrasse,24,8050,Mo-Sa 08:00-20:00
node,4226311279,47.5563661,7.5728015,Denner,supermarket,Basel,Allschwilerstrasse,38,4055,"Mo-Fr 08:00-18:30, Sa 07:30-17:00"
node,4244070962,47.4383308,8.4729685,Aldi,supermarket,Regensdorf,Feldstrasse,32,8105,Mo-Sa 07:30-20:00
node,4307893181,47.0568709,8.3101171,Coop,supermarket,Luzern,Zürichstrasse,9,6004,"Mo-We 07:30-18:30, Th,Fr 07:30-21:00, Sa 08:00-16:00"
node,4310110646,46.2097297,6.1435681,Coop,supermarket,Genève,Place de Cornavin,14,1201,Mo-We 06:00-19:00; Th 06:00-21:00; Fr 06:00-19:30; Sa 06:00-18:00
node,4310529908,47.3800378,8.4896864,Spar,supermarket,Zürich,Freilagerstrasse,51,8047,Mo-Sa 07:00-20:00
node,4314993996,47.4090314,8.5433264,Alnatura,supermarket,Zürich,Baumackerstrasse,35,8050,Mo-Fr 08:00-20:00; Sa 08:00-18:00
node,4328291097,47.3471862,8.5330722,Coop,supermarket,Zürich,Seestrasse,339,8038,Mo-Fr 07:00-21:00; Sa 08:00-21:00
node,4341245404,46.9478029,7.4362001,Migros,supermarket,Bern,Schanzenstrasse,5,3000,"Mo-Fr 06:00-20:00, Sa 06:00-17:00; PH off"
node,4342407034,47.5651143,7.6178221,Coop,supermarket,Basel,Bäumlihofstrasse,132/134,4058,"Mo-Fr 07:30-20:00, Sa 07:30-18:00"
node,4343491253,46.996546,8.6075027,Coop,supermarket,Brunnen,Bahnhofstrasse,36/38,6440,Mo-Sa 07:30-20:00
node,4364207486,47.4805982,9.0324644,Migros,supermarket,Bronschhofen,AMP-Strasse,2,9552,"Mo-Fr 08:00-19:00, Sa 08:00-17:00; PH off"
node,4366602090,47.2221009,8.2520035,Migros,supermarket,Hitzkirch,Richensee,2,6285,"Mo-Th 08:00-19:00, Fr 08:00-20:00, Sa 08:00-17:00; PH off"
node,4379720690,47.354492,8.0471686,Spar,supermarket,Oberentfelden,Muhenstrasse,9,5036,Mo-Sa 07:00-20:00
node,4379763119,47.4967387,8.7532306,Alnatura,supermarket,Winterthur,Industriestrasse,11,8400,"Mo-Fr 08:30-20:00, Sa 08:30-19:00; PH off"
node,4419872582,47.4900683,8.8995983,Migros,supermarket,Aadorf,Bahnhofstrasse,2,8355,"Mo-Fr 07:30-20:00, Sa 08:00-18:00; PH off"
node,4420328782,47.1299891,7.2429885,Coop,supermarket,Biel/Bienne,Salzhausstrasse,31,2503,Mo-Th 08:00-20:00; Fr 08:00-21:00; Sa 07:30-17:00; Su off
node,4423175779,47.3808159,8.5332829,ALDI,supermarket,Zürich,Zollstrasse,58,8005,Mo-Sa 07:30-21:00
node,4434448389,47.0514167,8.298684,ALDI,supermarket,Luzern,Bruchstrasse,2,6003,"Mo-We,Fr 07:30-19:00; Th 07:30-21:00; Sa 07:30-17:00"
node,4436281783,47.6963318,8.633796199999999,Coop,supermarket,Schaffhausen,Fronwagplatz,1,8200,"Mo-Fr 07:30-20:00; Sa 07:30-18:00; PH,Su off"
node,4450141255,46.8228398,8.0333341,Volg,supermarket,Sörenberg,Rothorn-Center,1,6174,Mo-Sa 06:30-19:00
node,4462112015,47.2080048,7.5158017,Coop,supermarket,Solothurn,Brunngrabenstrasse,2,4500,Mo-Fr 08:00-18:30; Sa 07:30-17:00; Su closed
node,4466482789,47.3806921,8.5348898,Coop,supermarket,Zürich,Zollstrasse,42,8005,Mo-Sa 07:00-21:00
node,4470200077,47.4797204,9.5766952,Migros,supermarket,Thal,Wiesentalstrasse,4,9425,Mo-Th 08:00-19:00; Fr 08:00-20:00; Sa 08:00-17:00; PH off
node,4471468374,47.4778718,8.9982285,Migros,supermarket,Münchwilen TG,Wilerstrasse,5,9542,"Mo-Fr 08:00-20:00, Sa 08:00-19:00; PH off"
node,4471606841,47.5042286,8.7717306,Migros,supermarket,Winterthur,Hintermühlenstrasse,4,8409,"Mo-Fr 08:00-20:00, Sa 08:00-18:00; PH off"
node,4485050990,46.203871,6.1462335,Migros,supermarket,Genève,Place de la Fusterie,7,1204,Mo-Fr 08:30-19:00; Sa 08:30-18:00
node,4521077846,47.5592809,7.5876958,Migros,supermarket,Basel,Eisengasse,12,4051,"Mo-Fr 06:30-19:00, Sa 06:30-18:00; Su off"
node,4558521620,46.8637785,8.631918,Volg,supermarket,Attinghausen,Reussstrasse,1,6468,"Mo-Fr 06:00-18:30; Sa 06:00-17:00; Su,PH off"
node,4586790608,47.0715498,8.3619633,Migros,supermarket,Adligenswil,Obgardirain,1,6043,"Mo-Fr 07:30-12:15, Mo-Th 13:30-19:00, Fr 13:30-20:00, Sa 07:30-17:00"
node,4601227391,46.9405337,7.1450493,Denner,supermarket,Muntelier,Grande Ferme,20,3280,Mo-Th 07:00-19:00; Fr 07:00-21:00; Sa 07:00-16:00
node,4612692582,46.3187736,7.988729,Coop,supermarket,Brig,Nordstrasse,2,3900,Mo-Th 06:00-18:30; Fr 06:00-20:00; Sa 06:00-17:00
node,4618729641,47.4263522,7.4178449,Volg,supermarket,Kleinlützel,Im Winkel,23,4245,Mo-Fr 06:00-18:30; Sa 06:00-18:00
node,4639861811,46.8811116,8.6436489,Spar,supermarket,Altdorf UR,Schmiedgasse,10,6460,Mo-Fr 07:30-18:30;Sa 07:30-16:00
node,4697887290,47.5165537,8.5943967,Aldi,supermarket,Embrach,Industriestrasse,4,8424,Mo-Sa 08:00-20:00
node,4724269890,46.9285773,7.4522685,VOI,supermarket,VOI,Seftigenstrasse,259,3084,Mo-Fr 08:00-20:00; Sa 08:00-17:00; PH off
node,4810427359,46.959062,7.496688,Lidl,supermarket,Ostermundigen,Bernstrasse,119,3072,Mo-Th 07:30-20:00; Fr 07:30-21:00; Sa 07:30-17:00
node,4811306182,46.6983886,9.1560724,Volg,supermarket,Vignogn,Vitg,30,7147,"Mo-Fr 08:00-11:30, 14:00-18:00; Sa 08:00-12:00, 14:00-17:00"
node,4813527922,47.5210346,8.5408348,Denner,supermarket,Bülach,Bahnhofstrasse,28,8180,Mo-Fr 08:00-20:00; Sa 08:00-18:00
node,4816412575,47.5107051,8.693819,Migros,supermarket,Winterthur,Lindenplatz,1,8408,Mo-Fr 07:30-20:00; Sa 07:30-18:00; PH off
node,4817359240,47.2253457,8.9441525,Denner,supermarket,Schmerikon,Bahnhofstrasse,3,8716,"Mo-Fr 06:30-12:30,13:30-19:00; Sa 06:30-17:00"
node,4827130190,47.3752033,8.485718,Migros,supermarket,Zürich,Albisriederstrasse,363,8047,Mo-Sa 08:00-20:00; PH off
node,4827131027,47.3900789,8.5087002,Migros-Outlet,supermarket,Zürich,Pfingstweidstrasse,101,8005,"Mo-Fr 07:00-19:00, Sa 08:00-16:00; PH off"
node,4827131028,47.3859928,8.5486931,Migros,supermarket,Zürich,Winterthurerstrasse,2-4,8006,Mo-Sa 08:00-21:00; PH off
node,4827131029,47.396145,8.4865224,VOI Migros Partner,supermarket,Zürich,Grünauring,37,8064,Mo-Fr 07:30-20:00; Sa 08:00-18:00
node,4832370695,46.8536107,9.514712,Lidl,supermarket,Chur,Ringstrasse,34,7000,Mo-Fr 07:30-20:00; Sa 07:30-18:00
node,4838594323,47.407888,8.5964595,Denner,supermarket,Wallisellen,Neue Winterthurerstrasse,99,8301,Mo-Sa 09:00-20:00
node,4838594390,47.3859488,8.499584,Denner,supermarket,Zürich,Baslerstrasse,50,8048,Mo-Sa 09:00-20:00
node,4841545904,47.4082866,8.595021599999999,Alnatura,supermarket,Wallisellen,Neue Winterthurerstrasse,99,8304,Mo-Sa 09:00-20:00; PH off
node,4841796184,47.3857631,8.5318296,Denner,supermarket,Zürich,Limmatstrasse,152,8005,Mo-Sa 07:30-20:00; PH off
node,4848816876,47.3729278,8.537713,Coop,supermarket,Zürich,Bahnhofstrasse,57,8001,Mo-Sa 09:00-20:00
node,4863684823,47.3894532,9.6491781,Coop,supermarket,Diepoldsau,Tramstrasse,33,9444,Mo-Th 07:00-19:00; Fr 07:00-20:00; Sa 07:00-17:00
node,4868938542,47.3838311,8.4978671,ALDI,supermarket,Zürich,Badenerstrasse,565,8048,Mo-Sa 08:00-21:00
node,4896104281,47.3574739,8.5230643,Coop,supermarket,Zürich,Kalanderplatz,1,8045,Mo-Fr 09:00-21:00; Sa 08:00-21:00
node,4896104282,47.3898336,8.471856,Coop,supermarket,Zürich,Am Suteracher,14,8048,Mo-Sa 07:30-20:00
node,4896104283,47.4104766,8.5467405,Coop,supermarket,Zürich,Wallisellenstrasse,1,8050,Mo-Fr 08:00-20:00; Sa 08:00-18:00
node,4900329304,46.9881259,6.9094198,Coop,supermarket,Neuchâtel,Rue des Poudrières,137,2006,"Mo-We 07:30-19:00, Th 07:30-20:00, Fr 07:30-19:00, Sa 07:30-18:00"
node,4904632669,46.9928154,6.9255613,Lidl,supermarket,Neuchâtel,Rue de l'Ecluse,30 - 38,2000,Mo-We 07:30-19:00; Th 07:30-20:00; Fr 07:30-19:00; Sa 07:30-18:00; PH off
node,4914425887,47.4973455,9.025993,Volg,supermarket,Bettwiesen,Hauptstrasse,50,9553,Mo-Sa 06:00-21:00
node,4916560819,47.4983121,8.8615229,Migros,supermarket,Elgg,St. Gallerstrasse,16,8353,"Mo-Fr 07:30-20:00, Sa 08:00-18:00; PH off"
node,4925136048,46.6290751,9.7450604,Volg,supermarket,Bergün/Bravuogn,Plaz,63,7482,Mo-Fr 07:30-18:30; Sa 07:30-17:00
node,4931591722,47.0612692,8.3077943,Migros,supermarket,Luzern,Friedentalstrasse,6,6004,"Mo-Th 08:00-19:00, Fr 08:00-20:00, Sa 08:00-17:00; PH off"
node,4947270215,47.0423429,9.430805,Migros,supermarket,Mels,Grossfeldstrasse,56,8879,"Mo-Th 08:30-19:00, Fr 08:30-21:00, Sa 08:00-17:00; PH off"
node,4975193021,47.5611724,7.5693704,Spar,supermarket,Basel,Hegenheimerstrasse,93,4055,Mo-Sa 08:00-19:00; Su 09:00-18:00
node,5032268522,47.5476823,7.5889594,Migros,supermarket,Basel,Centralbahnstrasse,10,4051,"Mo-Fr 06:00-22:00, Sa-Su 07:30-22:00"
node,5051572612,47.3105928,8.1137158,VOI Migros Partner,supermarket,Unterkulm,Böhlerstrasse,2,5726,"Mo-Fr 07:30-19:00, Sa 07:30-18:00; PH off"
node,5058547354,47.4252288,9.3780973,Migros,supermarket,St. Gallen,Brühlgasse,28,9000,Mo-Fr 08:00-19:00; Sa 08:00-18:00
node,5069266051,47.5473115,8.9095051,Volg,supermarket,Frauenfeld,Thundorferstrasse,118,8500,Mo-Sa 06:00-21:00
node,5092117845,47.3199178,8.7922154,Denner,supermarket,Wetzikon,Bahnhofstrasse,19,8620,Mo-Fr 07:30-21:00; Sa 07:30-21:00
node,5110745297,47.4800058,7.6156608,Denner,supermarket,Dornach,Hauptstrasse,4,4143,Mo-Fr 07:00-18:30; Sa 07:00-17:00; Su 08:00-18:00
node,5111142678,47.326349,8.7975201,Coop,supermarket,Wetzikon,Kirchgasse,4,8620,Mo-Sa 07:30-20:00
node,5111530089,46.31738,6.9360883,Migros,supermarket,Aigle,Chemin Sous le Grand-Pré,4,1860,"Mo 09:00-18:30; Tu-Th 08:30-18:30; Fr 08:30-21:00; Sa 08:00-17:00; Su,PH closed"
node,5111530096,46.3173862,6.9373368,Denner,supermarket,Aigle,Chemin Sous le Grand-Pré,4,1860,"Mo 09:00-18:30; Tu-Th 08:30-18:30; Fr 08:30-21:00; Sa 08:00-17:00; Su,PH closed"
node,5113772325,46.6198823,7.1628243,Denner,supermarket,Charmey (Gruyère),Rue du Centre,11,1637,Mo-Fr 07:00-19:00; Sa 07:30-18:30; Su 08:00-18:30
node,5137918322,47.5403806,7.5977406,ALDI,supermarket,Basel,Dornacherstrasse,258,4053,Mo-Fr 08:00-20:00; Sa 07:30-18:00
node,5165148132,46.440327,8.951942,Coop,supermarket,Dongio,Via Lucomagno,72,6715,"Mo-Fr 08:00-12:00, 14:00-18:00; Sa 08:00-12:00, 14:00-17:00"
node,5203847172,47.278373,7.3702933999999996,Denner,supermarket,Moutier,Rue du Moulin,2,2740,"Mo-Fr 08:00-18:30, Sa 07:30-17:00"
node,5214633987,47.1992782,7.4262987,VOI,supermarket,Bettlach,Dorfstrasse,12,2544,"Mo-Fr 07:30-18:30, Sa 07:30-18:00; PH off"
node,5231189090,47.372948,8.0820252,Migros,supermarket,Suhr,Bernstrasse Ost,52,5034,Mo-Fr 08:00-20:00; Sa 08:00-18:00; PH off
node,5243199320,46.9451957,7.3902766,VOI Migros Partner,supermarket,Bern,Mühledorfstrasse,15,3018,Mo-Fr 07:30-19:00; Sa 07:30-17:00; PH off
node,5274359340,47.5102979,8.5407826,Migros,supermarket,Bülach,Feldstrasse,85,8180,Mo-Sa 08:00-21:00; PH off
node,5274374491,47.505531500000004,8.5403446,ALDI,supermarket,Bachenbülach,Grabenstrasse,5,8184,Mo-Sa 08:00-20:00
node,5280817509,47.4813527,8.4666823,Aldi,supermarket,Dielsdorf,Ruchwiesenstrasse,5,8157,Mo-Sa 07:30-20:00
node,5287388696,47.1141419,7.3010333,VOI Migros Partner,supermarket,Studen BE,Hauptstrasse,65,2557,Mo-Fr 07:30-19:00; Sa 07:30-17:00; PH off
node,5295431519,47.3632596,8.8253509,Migros,supermarket,Hittnau,Jakob Stutz-Strasse,75,8335,"Mo-Fr 06:30-20:00, Sa 06:30-18:00; PH off"
node,5299251610,47.2546986,8.6121793,VOI Migros Partner,supermarket,Horgen,Seestrasse,288,8810,Mo-Sa 08:00-20:00; PH off
node,5347152017,47.2066937,7.5334224,Migros,supermarket,Solothurn,Wengistrasse,11,4500,"Mo-We,Fr 08:00-18:30; Th 08:00-21:00; Sa 07:30-18:00; Su off; PH off"
node,5347988220,47.5211926,8.5408024,Alnatura,supermarket,Bülach,Bahnhofstrasse,28,8180,Mo-Sa 08:00-20:00; PH off
node,5425441458,47.3620678,8.0456229,Migros,supermarket,Unterentfelden,Binzmattweg,8,5035,Mo-Sa 08:00-20:00; PH off
node,5425441459,47.3619353,8.0459734,Denner,supermarket,Unterentfelden,Binzmattweg,8,5035,Mo-Sa 08:00-20:00
node,5428703277,46.4312458,6.9097952,Denner,supermarket,Montreux,Place du Marché,6b,1820,Mo-Fr 08:00-20:00; Sa 08:00-19:00; Su 10:00-18:00
node,5435055314,47.0485838,8.306677,Coop,supermarket,Luzern,Hirschmattstrasse,15,6003,"Mo-We,Fr 06:30-19:00; Th 06:30-20:00; Sa 06:30-17:00"
node,5472353071,46.3783156,8.0333818,Coop,supermarket,Riederalp,Bahnhofstrasse,11,3987,Mo-Sa 08:00-18:30; Su 09:00-18:30
node,5483492229,47.1284712,9.055919,Migros,supermarket,Niederurnen,Ziegelbrückstrasse,21,8867,"Mo-Fr 07:30-20:00, Sa 07:30-18:00; PH off"
node,5491534334,46.2921649,7.5302277,Denner,supermarket,Sierre/Siders,Avenue Général-Guisan,15,3960,Mo-Fr 08:00-18:30
node,5499252489,47.6332852,9.2258897,Volg,supermarket,Scherzingen,Seestrasse,36,8596,Mo-Sa 06:15-20:00
node,5507213482,47.3661864,8.7825528,Denner,supermarket,Pfäffikon ZH,Seestrasse,27,8330,"Mo-Fr 08:00-20:00, Sa 08:00-18:00"
node,5513256743,47.1964113,8.7226229,Denner,supermarket,Wollerau,Wächlenstrasse,1,8832,Mo-Sa 07:30-20:00; PH off
node,5528673127,47.1263165,7.2463632,Migros,supermarket,Nidau,Lyssstrasse,15,2560,Mo-Fr 08:00-19:00; Sa 08:00-17:00
node,5531520439,47.4312051,9.6381797,Migros,supermarket,Au SG,Nollenhornstrasse,7,9434,Mo-Fr 08:00-19:00;Sa 08:00-17:00
node,5531520440,47.4310037,9.6381475,Denner,supermarket,Au SG,Nollenhornstrasse,7,9434,Mo-Fr 08:00-19:00;Sa 08:00-17:00
node,5540135357,47.2783897,7.9287275,VOI Migros Partner,supermarket,Strengelbach,Langenthalerstrasse,1,4802,"Mo-Fr 07:30-19:00, Sa 07:30-18:00"
node,5540176969,47.2796482,7.9270368,Coop,supermarket,Strengelbach,Streumattweg,2,4802,"Mo-Fr 07:30-19:00, Sa 07:30-18:00"
node,5540191029,47.278137,7.951807,Volg,supermarket,Zofingen,Luzernerstrasse,58,4800,Mo-Sa 06:00-20:00
node,5553197257,46.5274617,6.6015707,Denner,supermarket,Prilly,Chemin du Viaduc,1,1008,Mo-Fr 08:00-19:00; Sa 07:30-18:00
node,5580617894,47.1971269,8.4848331,Migros,supermarket,Steinhausen,Bahnhofstrasse,2,6312,Mo-Th 07:30-19:00; Fr 07:30-20:00; Sa 07:30-17:00; PH off
node,5602979356,47.0550399,8.3435784,Migros,supermarket,Luzern,Würzenbachstrasse,19,6006,Mo-Th 10:00-18:30; Fr 10:00-20:00; Sa 10:00-16:00
node,5682293068,47.2293029,8.847136,Lidl,supermarket,Jona,Feldlistrasse,5,8645,Mo-Fr 07:30-20:00; Sa 07:30-18:00
node,5707236223,47.3369497,7.2459096,Denner,supermarket,Bassecourt,Rue de l’Abbé Monnin,20,2854,Mo-Fr 07:00-18:30; Sa 07:00-17:00
node,5718170409,47.556004,7.5734503,Migros,supermarket,Basel,Allschwilerstrasse,31,4055,Mo-Fr 08:00-19:00; Sa 07:30-18:00
node,5767577390,47.5347922,7.6415287,Coop,supermarket,Muttenz,Hofackerstrasse,30,4132,Mo-Fr 07:00-18:00; Sa 07:00-13:00; PH off
node,5791885768,47.3184585,8.5819748,Migros,supermarket,Küsnacht,Zürichstrasse,149,8700,Mo-Sa 07:30-20:00; PH off
node,5869402307,46.774599,9.2076589,Migros,supermarket,Ilanz,Poststrasse,4,7130,Mo-Fr 08:00-20:00; Sa 08:00-17:00
node,5876693156,46.7751282,9.1927694,Coop,supermarket,Ilanz/Glion,Via Crappa Grossa,24,7130,Mo-Fr 08:00-20:00; Sa 08:00-17:00
node,5887023529,47.320722,7.9069631,VOI Migros Partner,supermarket,Aarburg,Bahnhofstrasse,59,4663,"Mo-Fr 07:00-20:00, Sa 07:00-18:00"
node,5906141564,47.299368,9.0878696,Migros,supermarket,Wattwil,Bahnhofstrasse,19,9630,"Mo-Th 07:30-19:00, Fr 07:30-20:00, Sa 07:30-17:00; PH off"
node,5965781853,47.6512181,8.8529556,Migros,supermarket,Stein am Rhein,Kaltenbacherstrasse,41,8260,"Mo-Fr 08:00-20:00, Sa 08:00-18:00; PH off"
node,6011935004,47.4128725,8.5470117,Coop,supermarket,Zürich,Andreasstrasse,5,8050,Mo-Fr 06:30-20:00; Sa 08:00-20:00
node,6016261985,47.3919927,8.0533673,Migros,supermarket,Aarau,Bahnhofplatz,3h,5000,"Mo-Fr 07:00-21:00; PH,Sa-Su 08:00-21:00"
node,6088196574,47.0490676,8.2623963,Migros,supermarket,Luzern,Luzernerstrasse,143,6014,"Mo-Th 08:00-19:00, Fr 08:00-20:00, Sa 08:00-17:00; PH off"
node,6103925139,47.2729265,8.4472941,ALDI,supermarket,Affoltern am Albis,Industriestrasse,5,8910,Mo-Sa 07:30-20:00
node,6122906632,47.1589589,9.0444769,Denner,supermarket,Schänis,Oberdorf,14,8718,Mo-Sa 08:00-18:00
node,6212993943,47.3242002,8.4686424,Coop,supermarket,Bonstetten,Im Heumoos,25,8906,Mo-Fr 08:00-20:00; Sa 07:30-20:00
node,6218415208,46.8995337,7.0496124,Spar,supermarket,Avenches,Route de Salavaux,2,1580,7/7 08:00-19:00
node,6238261157,47.4132639,8.2668592,Migros,supermarket,Mellingen,Lenzburgerstrasse,50,5507,"Mo-Fr 08:00-20:00, Sa 08:00-18:00; PH off"
node,6255713897,46.8119875,9.3976796,Volg,supermarket,Bonaduz,Versamerstrasse,15,7402,Mo-Sa 06:00-21:00
node,6271321287,46.7001714,8.8421509,Coop,supermarket,Disentis/Mustér,Via Acletta,1,7180,Mo-Fr 08:00-19:00; Sa 08:00-17:00
node,6329023707,47.446636,7.6959082,Volg,supermarket,Lupsingen,Liestalerstrasse,24a,4419,"Mo-Fr 07:30-12:15, Mo-Fr 14:00-19:00, Sa 07:30-16:00"
node,6340161787,46.2235606,7.2955421,Coop,supermarket,Conthey,Rue de la Madeleine,2,1964,Mo-Th 08:30-18:30; Fr 08:30-21:00; Sa 08:00-17:00
node,6399981854,47.3315245,8.8076053,Denner,supermarket,Wetzikon (ZH),Bahnhofstrasse,255,8623,"Mo-Fr 08:00-18:30, Sa 08:00-17:00"
node,6408618764,47.5267259,8.9222307,Migros,supermarket,Matzingen,Frauenfelderstrasse,95,9548,"Mo-Fr 07:30-20:00, Sa 08:00-18:00; PH off"
node,6410200887,46.6873587,6.9082501,ALDI,supermarket,Romont FR,Route de l'Industrie,7,1680,Mo-Th 08:00-19:00; Fr 08:00-20:00; Sa 08:00-16:00
node,6410203593,46.6925134,6.912314,Migros,supermarket,Romont (FR),Avenue de la Gare,7,1680,Mo-Th 07:00-19:00; Fr 07:00-21:00; Sa 07:00-16:00
node,6436889487,46.9398136,8.27091,VOI,supermarket,Alpnach Dorf,Brünigstrasse,29,6055,"Mo-Th 06:30-19:00, Fr 06:30-20:00, Sa 07:30-17:00; PH off"
node,6444727818,47.3071178,8.5903618,Migros,supermarket,Erlenbach,Bahnhofstrasse,42,8703,Mo-Sa 08:00-20:00; PH off
node,6445018241,47.368409,8.4630252,Migros,supermarket,Uitikon Waldegg,Zürcherstrasse,8,8142,Mo-Sa 08:00-20:00; PH off
node,6479033700,47.4051315,8.1729499,Lidl,supermarket,Niederlenz,Wildeggerstrasse,5,5702,Mo-Sa 07:30-20:00
node,6479074393,47.4007553,8.064905,Lidl,supermarket,Aarau,Neumattstrasse,13-17,5000,Mo-Sa 07:30-21:00
node,6498438957,47.0168295,7.4921404,Migros,supermarket,Schönbühl,Industriestrasse,10,3321,"Mo-Th 09:00-20:00, Fr 09:00-21:30, Sa 08:00-17:00; PH off"
node,6528175567,47.4007491,8.4348439,Migros,supermarket,Schlieren,Rietbachstrasse,14,8952,Mo-Sa 08:00-20:00; PH off
node,6541934447,46.9581546,7.4537816,Migros,supermarket,Bern,Breitenrainstrasse,11,3013,"Mo-Fr 07:30-20:00, Sa 07:30-17:00; PH off"
node,6549591104,47.3542256,9.1126996,Volg,supermarket,Oberhelfenschwil,Dorfstrasse,1,9621,"Mo-Fr 07:30-12:15, 14:00-19:00; Sa 07:30-17:00"
node,6564393269,47.1454577,7.2632254,VOI Migros Partner,supermarket,Biel/Bienne,Jakob-Stämpfli-Strasse,112,2502,Mo-Fr 07:30-19:00; Sa 08:00-17:00; PH off
node,6567435533,47.1636809,9.473328,Aldi,supermarket,Buchs (SG),Churerstrasse,12,9470,"Mo,Tu,Th 07:30-19:00; We,Fr 07:30-20:00; Sa 07:30-17:00"
node,6578079925,46.427245,6.2662481,Coop,supermarket,Gland,Allée du Communet,20,1196,"Mo-Fr 08:00-19:00, Sa 08:00-18:00"
node,6582034724,47.5223254,7.6949539,Denner,supermarket,Pratteln,Schlossstrasse,1,4133,Mo-Fr 08:00-20:00; Sa 08:00-18:00
node,6587016679,47.5805116,8.5133669,Migros,supermarket,Eglisau,Bauelenzelgstrasse,16,8193,Mo-Sa 08:00-20:00; PH off
node,6592859586,47.0012612,9.5573184,Volg,supermarket,Jenins,Kreuzgasse,10,7307,"Mo-Fr 07:30-12:15,15:00-19:00;Sa 07:30-16:00"
node,6605324537,47.1266014,7.2556651,Coop,supermarket,Biel/Bienne,Rue Alexander-Moser / Alexander-Moser-Strasse,81,2503,"Mo-Fr 07:00-19:00, Sa 07:00-17:00"
node,6620989547,47.477521,7.1508046,Volg,supermarket,Bonfol,Rue de la Vendline,83,2944,"Mo-Fr 06:00-18:30,; Sa 06:00-17:00"
node,6652920985,47.0436265,8.304805,Denner,supermarket,Luzern,Bundesstrasse,12,6003,Mo-Th 08:00-19:00; Fr 08:00-20:00; Sa 08:00-17:00
node,6684124871,46.3495431,8.9742313,ALDI,supermarket,Biasca,Via Bellinzona,49,6710,"Mo,Tu,We,Fr 07:30-19:00; Th 07:30-21:00; Sa 07:30-18:30; Su,PH off"
node,6688353408,47.1732982,8.518347200000001,Alnatura,supermarket,Zug,Baarerstrasse,22,6300,Mo-Fr 08:00-19:00; Th 08:00-21:00; Sa 08:00-17:00; PH off
node,6710832885,47.0543816,8.3084604,Alnatura,supermarket,Luzern,Hertensteinstrasse,40,6004,Mo-Fr 08:00-19:00; Th 08:00-21:00; Sa 08:00-17:00; PH off
node,6712081355,47.276806,7.3701198,Migros,supermarket,Moutier,Rue de l'Écluse,1,2740,"Mo-Th 08:00-19:00, Fr 08:00-20:00, Sa 08:00-17:00; PH off"
node,6714871321,47.3065988,8.7574237,Migros,supermarket,Gossau (ZH),Im Zentrum,1,8625,"Mo-Fr 08:00-20:00, Sa 08:00-18:00; PH off"
node,6734792611,47.3953281,8.5183575,VOI Migros Partner,supermarket,Zürich,Hönggerstrasse,117,8037,"Mo-Fr 07:00-20:00, Sa 07:00-19:00; PH off"
node,6750927182,47.0276194,8.3009461,Migros,supermarket,Kriens,Am Mattenhof,2,6010,"Mo-Th 07:30-19:00, Fr 07:30-20:00, Sa 08:00-17:00; PH off"
node,6763613317,47.3497418,8.7158766,Alnatura,supermarket,Uster,Zürichstrasse,20,8610,Mo-Sa 08:00-20:00; PH off
node,6782767669,47.2163464,7.1833248,Rolog Krinner Cotub Titan Serac Molok,supermarket,Tavannes,La Combe,12,2710,24/7
node,6815640223,47.3325792,8.811601,Volg,supermarket,Wetzikon,Bahnhofstrasse,302,8623,Mo-Fr 06:00-20:00; Sa 06:00-18:00
node,6821809534,47.5466147,9.2976249,Migros,supermarket,Amriswil,Rütistrasse,10a,8580,"Mo-Fr 07:30-20:00, Sa 07:30-18:00; PH off"
node,6864319131,47.3782978,8.4939806,VOI Migros Partner,supermarket,Zürich,Albisriederstrasse,253,8047,Mo-Sa 07:00-20:00; PH off
node,6866569480,46.9679815,9.5632226,Denner,supermarket,Landquart,Kantonsstrasse,24,7302,Mo-Fr 08:00-19:00; Sa 08:00-17:00
node,6931278967,47.1878801,8.4777518,Lidl,supermarket,Cham,Hinterbergstrasse,19,6330,Mo-Th 07:30-19:00; Fr 07:30-21:00; Sa 07:30-17:00
node,6982801367,47.229771,8.8487477,Coop,supermarket,Jona,St. Gallerstrasse,120,8645,Mo-Th 09:00-19:00; Fr 09:00-20:00; Sa 08:00-17:00
node,6982916707,47.5816147,9.1687776,Denner,supermarket,Berg TG,Bahnhofstrasse,1,8572,"Mo-Fr 08:00-12:15,14:00-18:30, Sa 08:00-16:00"
node,6991730777,46.9008594,8.2487313,Lidl,supermarket,Sarnen,Pilatusstrasse,14b,6060,"Mo-Th 07:30-20:00, Fr 07:30-21:00, Sa 07:30-20:00"
node,7017965223,47.0885618,6.8020873,Coop,supermarket,La Chaux-de-Fonds,Boulevard des Eplatures,20,2300,Mo-Fr 08:00-19:00; Th 08:00-20:00; Sa 08:00-18:00
node,7051356516,46.4234821,8.1596145,Volg,supermarket,Bellwald,Bielweg,1,3997,Mo-Su 07:30-19:00
node,7085739339,47.3645244,8.5539732,Alnatura,supermarket,Zürich,Kreuzplatz,20,8008,Mo-Sa 08:00-20:00; PH off
node,7128726985,47.3924303,8.5155148,Lidl,supermarket,Zürich,Förrlibuckstrasse,62,8005,Mo-Sa 07:30-21:00
node,7191052477,47.3248295,8.203642,VOI Migros Partner,supermarket,Seengen,Unterdorfstrasse,7a,5707,Mo-Fr 07:30-19:30; Sa 07:30-18:00; PH off
node,7380954135,47.5173965,8.6498136,Migros,supermarket,Pfungen,Weiacherstrasse,1,8422,"Mo-Fr 08:00-20:00, Sa 08:00-18:00; PH off"
node,7389830921,46.8732428,8.650783,Denner,supermarket,Altdorf UR,Grundgasse,2,6460,Mo-Th 08:00-18:30; Fr 08:00-21:00; Sa 08:00-17:00
node,7390289540,47.0936014,8.3575307,Migros,supermarket,Ebikon,Ebisquare-Strasse,1,6030,"Mo-Th 09:00-19:00, Fr 09:00-21:00, Sa 08:00-17:00; PH off"
node,7390289541,47.0813405,8.3410776,Migros,supermarket,Ebikon,Zentralstrasse,16,6030,"Mo-Th 08:00-19:00, Fr 08:00-21:00, Sa 08:00-17:00; PH off"
node,7390289542,47.1775933,8.5053769,Migros,supermarket,Zug,Hertizentrum,10,6300,"Mo-Th 07:30-19:00, Fr 07:30-20:00, Sa 07:30-17:00; PH off"
node,7390289543,47.1757272,8.7130911,Migros,supermarket,Schindellegi,Pfäffikonerstrasse,19,8834,"Mo-Fr 08:00-20:00, Sa 08:00-18:00; PH off"
node,7390289544,46.8727406,8.651044,Migros,supermarket,Altdorf UR,Gotthardstrasse,67,6460,"Mo-Th 08:00-18:30, Fr 08:00-21:00, Sa 08:00-17:00"
node,7403555052,47.3857952,8.4924667,Denner,supermarket,Zürich,Badenerstrasse,621,8048,Mo-Sa 07:30-20:00
node,7418113614,47.4952268,8.758614099999999,Coop,supermarket,Winterthur,Rudolf-Diesel-Strasse,19,8404,Mo-Sa 08:00-20:00; PH off
node,7457739462,47.5395222,7.6039942,Migros,supermarket,Basel,Münchensteinerstrasse,200,4053,"Mo-Fr 09:00-20:00, Sa 08:00-18:00; PH off"
node,7483327233,47.3180504,7.8017601,Migros,supermarket,Egerkingen,Hausimollstrasse,1,4622,Mo-Fr 09:00-18:30; Th 09:00-21:00; Sa 08:00-18:00; PH off
node,7507371250,47.3847433,8.0895665,Migros,supermarket,Buchs AG,Bresteneggstrasse,9b,5033,"Mo-Fr 09:00-20:00, Sa 08:00-20:00; PH off"
node,7545142513,47.2696802,7.6924931,VOI Migros Partner,supermarket,Niederbipp,Wydenstrasse,9,4704,"Mo-Th 07:30-19:00, Fr 07:30-20:00, Sa 07:30-17:00"
node,7545151159,47.3718349,7.9937767,VOI Migros Partner,supermarket,Niedergösgen,Aarestrasse,49,5013,"Mo-Fr 07:45-18:30, Sa 07:30-17:00; PH off"
node,7545166566,47.3987687,8.1768383,VOI Migros Partner,supermarket,Niederlenz,Lenzburgerstrasse,2,5702,"Mo-Fr 08:00-20:00, Sa 08:00-18:00; PH off"
node,7545229842,47.2132008,8.0946225,VOI,supermarket,Büron,Sagipark,7,6233,"Mo-Th 07:30-19:00, Fr 07:30-20:00, Sa 07:30-17:00; PH off"
node,7545402814,47.3238339,8.548588,VOI Migros Partner,supermarket,Kilchberg,Bahnhofstrasse,3,8802,Mo-Sa 07:00-20:00; PH off
node,7545529110,46.8509431,7.5752386,VOI Migros Partner,supermarket,Wichtrach,Dorfplatz,1,3114,"Mo-Fr 08:00-19:00, Sa 08:00-17:00; PH off"
node,7545541685,46.7736603,7.6161478,VOI Migros Partner,supermarket,Steffisburg,Bahnhofstrasse,87,3613,Mo-Fr 08:00-19:00; Sa 08:00-17:00; PH off
node,7591924440,47.4223194,8.4993196,Lidl,supermarket,Zürich,Wehntalerstrasse,625,8046,Mo-Sa 07:30-20:00; PH off
node,7643943886,47.5448737,9.2851944,Spar,supermarket,Amriswil,Weinfelderstrasse,74,8580,Mo-Sa 06:00-22:00; Su 08:00-20:00
node,7683124251,47.462723,9.0428048,Migros,supermarket,Wil SG,Obere Bahnhofstrasse,5,9500,Mo-Fr 8:00-19:00; Tu 08:00-20:00; Sa 08:00-17:00; PH off
node,7684812078,47.4579651,8.7699768,Migros,supermarket,Kollbrunn,Tösstalstrasse,24,8483,"Mo-Fr 07:30-20:00, Sa 08:00-18:00; PH off"
node,7685095602,47.4958334,8.7497154,Migros-Outlet,supermarket,Winterthur,Industriestrasse,8,8404,"Mo-Fr 09:00-19:00, Sa 09:00-18:00; PH off"
node,7711197327,47.3882031,8.6805468,Migros,supermarket,Volketswil,Im Zentrum,18,8604,Mo-Sa 08:00-20:00; PH off
node,7711325934,47.1283889,9.0556246,Migros,supermarket,Niederurnen,Ziegelbrückstrasse,21,8867,"Mo-Fr 08:00-12:30,14:00-18:00, Sa 08:00-18:00; PH off"
node,7714058359,46.9341831,8.276197,Migros,supermarket,Alpnach Dorf,Untere Gründlistrasse,21,6055,"Mo-Fr 09:00-18:00, Sa 09:00-17:00; PH off"
node,7714224518,47.2466758,7.9578727,Migros-Outlet,supermarket,Mehlsecken,Zelglimatte,3,6260,"Mo-Fr 09:00-18:00, Sa 09:00-17:00; PH off"
node,7714353009,47.0779366,8.2751915,Migros-Outlet,supermarket,Emmenbrücke,Sonnenplatz,2,6020,Mo-Sa 08:00-17:00; PH off
node,7744517904,47.347822,8.1612756,Migros,supermarket,Seon,Unterdorfstrasse,21,5703,Mo-Fr 08:00-19:00; Th 08:00-20:00; Sa 07:30-18:00; PH off
node,7744520184,47.3600635,8.0980307,Migros,supermarket,Gränichen,Lindenplatz,2,5722,"Mo-Fr 08:00-19:00, Sa 08:00-17:00; PH off"
node,7744624818,47.2649349,7.8292999,Migros,supermarket,Murgenthal,Fahrackerstrasse,1,4853,"Mo-Fr 08:00-19:00, Sa 07:30-17:00; PH off"
node,7746213154,46.6917157,6.7031558,Landi,supermarket,Bercher,Place de la Gare,10,1038,"Mo-Fr 08:00-12:00,13:30-18:30; Sa 08:00-17:00"
node,7746495807,47.1906226,7.4055985,Migros-Outlet,supermarket,Grenchen,Maienstrasse,6,2540,"Mo-Th 09:00-18:30, Fr 09:00-20:00, Sa 09:00-17:00; PH off"
node,7746749386,47.3288607,7.8318357,Migros-Outlet,supermarket,Hägendorf,Industriestrasse West,40,4614,Mo-Fr 09:00-18:30; Th 09:00-20:00; Sa 09:00-17:00; PH off
node,7784132951,46.2985567,7.054371,Coop,supermarket,Villars-sur-Ollon,Avenue Centrale,118,1884,"Mo-Su,PH 08:00-19:00"
node,7794436351,47.4773077,8.3082745,Lidl,supermarket,Baden,Bahnhofstrasse,31,5400,Mo-Sa 06:30-20:00; PH off
node,7804887261,47.2274892,8.6699861,Volg,supermarket,Wädenswil,Schönenbergstrasse,26,8820,"Mo-Fr 06:00-21:00, Sa 07:00-18:00"
node,7958135920,46.6788734,8.7709491,Coop,supermarket,Sedrun,Via Alpsu,70,7188,"Mo-Fr 08:00-12:15,13:30-18:30; Sa 08:00-17:00"
node,7981030482,47.3818153,8.4238011,Spar,supermarket,Urdorf,Bachstrasse,11,8902,Mo-Fr 07:00-20:00; Sa 07:00-18:00
node,8098492384,47.561065,7.5913921,Coop,supermarket,Basel,Greifengasse,3,4058,Mo-Fr 06:30-20:00; Sa 07:30-18:00
node,8098492385,47.5769624,7.5911385,Coop,supermarket,Basel,Inselstrasse,76,4057,Mo-Fr 07:30-20:00; Sa 07:30-18:00
node,8121967617,47.4387752,8.5724162,Aldi,supermarket,Glattbrugg,Schaffhauserstrasse,134,8152,Mo-Sa 07:30-20:00
node,8126719712,46.2794139,6.1652207,ALDI,supermarket,Versoix,Route de Saint-Loup,2,1290,"Mo-We,Fr 08:00-19:00; Th 08:00-20:00; Sa 08:00-18:00"
node,8143753521,47.562245,7.5923242,Aldi,supermarket,Basel,Webergasse,34,4058,Mo-Fr 08:00-20:00; Sa 08:00-18:00
node,8151376039,46.7457502,7.6435361,Coop,supermarket,Hünibach,Zedtwitzweg,1,3626,Mo-Fr 07:30-19:00; Sa 07:30-17:00
node,8184391097,47.4254947,9.0858919,Volg,supermarket,Jonschwil,Unterdorfstrasse,6,9243,Mo-Fr 06:00-19:00; Sa 07:00-17:00
node,8261369903,47.540963,8.7880083,Volg,supermarket,Rickenbach Sulz,Stationsstrasse,32,8545,Mo-Su 06:30-21:00
node,8269133018,47.4213646,8.4096678,Coop,supermarket,Geroldswil,Huebwiesenstrasse,25,8954,Mo-Sa 07:30-20:00
node,8269204325,47.0336116,8.4266,Coop,supermarket,Weggis,Luzernerstrasse,38,6353,Mo-Fr 07:30-19:00; Sa 07:30-17:00
node,8278444660,46.5300438,6.5725166999999995,Migros,supermarket,Chavannes-près-Renens,Avenue de la Gare,84,1022,Mo-Fr 07:30-20:00; Sa 08:00-18:00
node,8286494178,47.3968758,8.5970455,Migros,supermarket,Dübendorf,Am Stadtrand,5,8600,Mo-Sa 07:00-20:00; PH off
node,8293804518,46.9581673,7.5136675,Coop,supermarket,Stettlen,Bernstrasse,1,3066,Mo-Fr 07:00-19:00; Sa 07:00-17:00
node,8294634935,47.469582,7.877464,Spar,supermarket,Ormalingen,Konsumstrasse,87,4466,Mo-Su 07:00-19:00
node,8302655352,47.4079984,9.630328,Denner,supermarket,Widnau,Bahnhofstrasse,7,9443,Mo-Fr 08:00-18:30; Sa 08:00-17:00
node,8402157978,46.7945731,7.1154886,Denner,supermarket,Villars-sur-Glâne,Rue des Cerisiers,2,1752,Mo-Th 07:30-19:00; Fr 07:30-21:00; Sa 07:30-16:00
node,8437761803,46.5220971,6.6262057,Lidl,supermarket,Lausanne,Rue de Genève,33,1003,Mo-Fr 07:30-19:00; Sa 07:30-18:00
node,8448900291,47.2677573,8.2607243,Landi,supermarket,Schongau,Mettmenstrasse,5,6288,Mo-Fr 07:00-18:30; Sa 07:30-16:00
node,8461330192,47.2110372,7.5447388,Migros,supermarket,Solothurn,Baselstrasse,30,4500,Mo-Fr 08:00-18:30; Sa 08:00-18:00; PH off
node,8465280711,47.476973,8.3080976,ALDI,supermarket,Baden,Bahnhofstrasse,31,5400,Mo-Sa 06:30-20:00
node,8531787049,47.1973504,7.5837586,Migros,supermarket,Derendingen,Hauptstrasse,22,4552,Mo-Th 08:00-18:30; Fr 08:00-20:00; Sa 07:30-18:00; PH off
node,8541239873,47.3874546,8.5173402,Coop,supermarket,Zürich,Maschinenstrasse,10,8005,Mo-Fr 09:00-21:00; Sa 08:00-21:00
node,8548450743,46.5541641,6.6348143,Coop,supermarket,Le Mont-sur-Lausanne,Route de Lausanne,33,1052,Mo-Fr 07:30-19:00; Sa 07:30-18:00
node,8568619768,47.3682397,8.379791,Lidl,supermarket,Rudolfstetten,Alte Bremgartenstrasse,10b,8964,Mo-Sa 07:30-20:00
node,8568717299,47.3975418,8.008607,Volg,supermarket,Erlinsbach (SO),Hauptstrasse,6,5015,"Mo-Fr 06:00-18:30,Sa 07:00-18:00,PH off"
node,8646641115,47.5253385,8.2453176,Denner,supermarket,Würenlingen,Wiesenstrasse,4,5303,Mo-Sa 08:00-20:00
node,8690397614,47.37739,9.5376422,Denner,supermarket,Altstätten SG,Stossstrasse,2,9450,"Mo-Th 08:00-19:00, Fr 08:00-20:00; Sa 08:00-17:00; Su off"
node,8710511184,47.1710859,7.5740275,Migros,supermarket,Gerlafingen,Friedhofstrasse,1,4563,"Mo-Th 08:00-18:30, Fr 08:00-20:00, Sa 07:30-18:00; PH off"
node,8730544990,47.4783308,8.2167786,Denner,supermarket,Windisch,Dohlenzelgstrasse,2a,5210,Mo-Th 08:00-19:00; Fr 08:00-20:00; Sa 08:00-18:00
node,8761614593,46.9765256,8.3369996,Denner,supermarket,Stansstad,Bahnhofstrasse,19,6362,Mo-Fr 7:30-19:00; Sa 7:30-18:00; PH off
node,8769399225,47.1271859,9.0553323,Coop,supermarket,Niederurnen,Ziegelbrückstrasse,16,8867,Mo-Fr 07:30-20:00; Sa 07:30-18:00
node,8929311539,47.3853027,8.2187552,Volg,supermarket,Hendschiken,Dintikerstrasse,4a,5604,Mo-Fr 07:00-19:00; Sa 07:30-15:00; PH closed
node,8945062569,46.8035454,7.150201,Migros,supermarket,Fribourg,Rue Louis-d'Affry,2,1701,Mo-Sa 06:00-21:00; Su 07:00-19:00
node,8957257034,47.5001307,8.7861334,Landi,supermarket,Elsau,St. Gallerstrasse,6,8352,Mo-Fr 08:00-19:00; Sa 08:00-17:00
node,8959998269,46.9468066,7.39506,Migros,supermarket,Bern,Bethlehemstrasse,40,3027,"Mo-Fr 08:00-19:00, Sa 08:00-17:00; PH off; Jul 31 08:00-17:00; Aug 01 off"
node,8971682217,46.1868938,7.2973988,Volg,supermarket,Haute-Nendaz,Route de Nendaz,860,1997,Mo-Fr 06:00-19:00; Sa 07:00-19:00
node,9006112579,46.6027851,7.1018072,Coop,supermarket,Broc,Rue de Montsalvens,17,1636,Mo-Th 07:30-19:00; Fr 07:30-20:00; Sa 07:30-16:00
node,9006140133,47.5515997,7.5929723,Alnatura,supermarket,Basel,Henric Petri-Strasse,20,4051,Mo-Fr 07:30-20:00; Sa 08:00-18:00
node,9020119833,46.2102876,7.257795,Volg,supermarket,Ardon,Rue des Grands-Proz,2b,1957,Mo-Fr 06:00-18:30; Sa 06:00-17:00
node,9028829933,46.2252165,7.326543,Denner,supermarket,Sion,Rue de Savoie,63,1950,Mo-Th 07:30-18:30; Fr 07:30-20:00; Sa 07:30-17:00
node,9037951213,46.2236438,7.302606,Migros,supermarket,Conthey,Route des Rottes,15,1964,Mo-Th 08:00-18:30; Fr 08:00-21:00; Sa 08:00-17:00
node,9040336565,47.4773426,8.6992966,Migros,supermarket,Winterthur,Ziegeleiplatz,2,8406,Mo-Fr 07:30-20:00; Sa 08:00-19:00
node,9040336566,47.4774267,8.6993803,Denner,supermarket,Winterthur,Ziegeleiplatz,2,8406,Mo-Fr 07:30-20:00; Sa 08:00-18:00
node,9040799789,46.2287926,7.3555512,Migros,supermarket,Sion,Avenue de France,14-20,1950,"Mo-Th 08:00-18:30; Fr 08:00-20:00; Sa 08:00-17:00; Su, PH off"
node,9056954858,47.0999003,6.8272492,Denner,supermarket,La Chaux-de-Fonds,Rue Daniel-Jean Richard,23,2300,Mo-Fr 08:00-19:00; Sa 08:00-18:00
node,9108173452,46.2965708,7.3966845,Coop,supermarket,Anzère,Route Nord,1,1972,Mo-Su 08:00-19:00
node,9110247063,46.2280572,7.3784558,Migros,supermarket,Sion,Route du Manège,2,1950,"Mo-Fr 09:00-18:30; Sa 08:00-17:00; Su, PH off"
node,9110247064,46.2313877,7.3840997,Migros,supermarket,Sion,Avenue Grand-Champsec,30,1950,"Mo-Th 07:30-18:30; Fr 07:30-20:00; Sa 07:30-17:00; Su, PH off"
node,9124792210,47.1121596,6.8347663999999995,Migros,supermarket,La Chaux-de-Fonds,Rue de la Charrière,71,2300,"Mo-We,Fr 07:30-19:00; Th 07:30-20:00; Sa 07:30-18:00"
node,9124792211,47.1119253,6.8343372,Denner,supermarket,La Chaux-de-Fonds,Rue de la Charrière,65,2300,Mo-Fr 07:30-19:00; Th 07:30-20:00; Sa 07:30-18:00
node,9137127450,46.2018237,7.2230699,Migros,supermarket,Chamoson,Chemin Neuf,2,1955,"Mo-Fr 08:00-12:00,14:00-18:00; Sa 08:00-17:00"
node,9138298011,46.2228589,7.3045263,Lidl,supermarket,Conthey,Route des Rottes,38,1964,Mo-Th 07:30-18:30; Fr 07:30-21:00; Sa 07:30-17:00
node,9149840075,46.3041156,7.5375261,Volg,supermarket,Veyras,Avenue St-François,6,3968,Mo-Fr 06:00-18:30; Sa 06:00-17:00
node,9176645019,47.4837163,7.7367076,Coop,supermarket,Liestal,Büchelistrasse,10,4410,Mo-Sa 08:00-19:00
node,9238986216,47.2283683,8.8201853,Lidl,supermarket,Rapperswil-Jona,Obere Bahnhofstrasse,58,8640,Mo-Fr 07:30-20:00; Sa 07:30-18:00
node,9272941755,46.2423838,7.3397305,Coop,supermarket,Savièse,Route de Savièse,43,1965,Mo-Th 07:30-18:30; Fr 07:30-19:30; Sa 07:30-17:00
node,9280034075,46.1724671,7.222089,Denner,supermarket,Riddes,Rue du Village,16,1908,"Mo-Th 07:30-12:15,13:30-18:30; Fr 07:30-12:15,13:30-19:00; Sa 07:30-17:00; Su 07:30-12:15,13:30-18:30"
node,9299600732,46.1486723,7.1728465,Migros,supermarket,Saxon,Rue de Gottefrey,38,1907,Mo-Fr 07:00-18:30; Sa 07:00-17:00
node,9300641539,47.2288463,8.6743166,ZWIBOL,supermarket,Wädenswil,Seestrasse,105,8820,"Mo off; Tu, We, Fr 09:00-16:00; Th 09:00-20:00; Sa 08:00-16:00"
node,9310797413,47.4537232,9.0394738,Denner,supermarket,Wilen bei Wil,Weidstrasse,4,9535,Mo-Fr 07:30-20:00; Sa 07:30-18:00
node,9342792098,46.2846196,7.5164486,Lidl,supermarket,Sierre,Route de Sion,81;83,3960,Mo-Th 07:30-18:30; Fr 07:30-21:00; Sa 07:30-17:00
node,9424019831,46.4406577,6.8933361,Migros,supermarket,Clarens,Rue du Léman,9,1815,Mo-Th 08:00-19:00; Fr 08:00-20:00; Sa 08:00-17:00
node,9439075211,47.1698895,7.9910333,Denner,supermarket,Schötz,Luzernerstrasse,11,6247,"Mo-Fr 08:00-12:15,13:30-18:30; Sa 08:00-16:00; Su,PH off"
node,9439167467,47.1307981,8.0006117,Lidl,supermarket,Willisau,Wydematt,1,6130,Mo-Th 07:30-19:00; Fr 07:30-21:00; Sa 07:30-17:00; PH off
node,9514259433,46.8802655,7.6139056,Landi,supermarket,Konolfingen,Haldenweg,5,3510,Mo-Fr 08:00-18:30; Sa 08:00-17:00
node,9524025385,47.3037001,8.0237319,Volg,supermarket,Uerkheim,Dorfstrasse,58,4813,Mo-Sa 06:00-20:00
node,9584570723,46.8815292,8.6159751,Volg,supermarket,Seedorf UR,Dorfstrasse,49,6462,Mo-Fr 06:00-18:30; Sa 06:00-17:00
node,9624205242,47.5496452,8.618708999999999,Volg,supermarket,Buch am Irchel,Hauptstrasse,55,8414,Mo-Fr 07:00-19:00; Sa 07:00-16:00
node,9861379435,47.0945184,6.8167917,Coop,supermarket,La Chaux-de-Fonds,Avenue Léopold-Robert,151,2300,Mo-We 08:00-19:00; Th 08:00-20:00; Fr 08:00-19:00; Sa 08:00-18:00
node,9895305607,47.0826359,8.1270954,Coop,supermarket,Ruswil,Hellbühlerstrasse,8,6017,Mo-Th 08:00-19:00; Fr 08:00-20:00; Sa 07:30-17:00
node,9912766560,46.6390933,6.6358519000000005,Denner,supermarket,Echallens,Rue de Praz-Palud,2,1040,Lu-Ve 07:30-19:00; Sa 07:30-18:00
node,9950926547,47.3924041,9.569855,Volg,supermarket,Marbach SG,Staatsstrasse,17,9437,Mo-Fr 06:00-21:00; Sa 07:00-19:00; Su off
node,9974889755,47.5353752,8.7870901,Landi,supermarket,Rickenbach Sulz,Stationsstrasse,1,8545,Mo-Fr 08:00-18:30; Sa 08:00-17:00; PH off
node,9985258254,47.5108858,8.7596576,ALDI,supermarket,Winterthur,Guggenbühlstrasse,6,8404,Mo-Sa 07:30-20:00
node,10052066326,46.6609459,6.7954840999999995,Lidl,supermarket,Moudon,Chemin du Devin,17,1510,Mo-Th 07:30-19:00; Fr 07:30-20:00; Sa 07:30-17:00
node,10121859748,46.5224791,6.5291632,Denner,supermarket,Préverenges,Zone Industrielle Le Trési,1,1028,"Mo-Th 08:00-19:00; Fr 08:00-20:00; Sa 08:00-18:00; PH,Su off"
node,10173850897,46.2221407,7.297392,Landi,supermarket,Conthey,Route des Rottes,3,1964,Mo-Th 08:30-18:30; Fr 08:30-20:00; Sa 08:30-17:00
node,10177846013,47.3862897,9.2839541,Denner,supermarket,Herisau,Gartenstrasse,2,9100,Mo-Th 07:30-19:00; Fr 07:30-20:00; Sa 07:30-18:00; Su off
node,10201681880,46.5282129,6.5673552,Denner,supermarket,Chavannes-près-Renens,Route de la Maladière,6,1022,Mo-Fr 08:00-19:00; Sa 08:00-18:00
node,10237639011,46.9279317,9.5358044,Volg,supermarket,Untervaz,Quadergasse,6,7204,Mo-Sa 06:00-20:00
node,10245408227,46.5214986,6.6128069,Denner,supermarket,Lausanne,Chemin de la Colline,4,1007,Mo-Fr 07:30-19:00; Sa 07:30-18:00
node,10253712057,47.3863448,8.1249064,Denner,supermarket,Hunzenschwil,Hauptstrasse,11,5502,Mo-Sa 07:00-20:00; Su off
node,10301038396,46.9413577,7.4658141,Migros,supermarket,Bern,Thunstrasse,110,3006,Mo-Fr 08:00-19:00; Sa 08:00-17:00
node,10303495270,47.4223971,9.370943,Alnatura,supermarket,St. Gallen,St. Leonhard-Strasse,33,9001,Mo-Fr 07:00-20:00; Sa 08:00-18:00
node,10314410558,47.3142708,8.7949454,Migros,supermarket,Wetzikon,Hofstrasse,47,8620,Mo-Fr 08:00-20:00; Sa 08:00-19:00
node,10557654804,47.1981276,8.109064,Volg,supermarket,Geuensee,Chäppelimatt,8,6232,Mo-Fr 06:00-19:00; Sa 07:00-17:00; PH off
node,10711459945,47.3699617,8.5091748,Coop,supermarket,Zürich,Birmensdorferstrasse,310,8055,Mo-Sa 07:00-21:00; PH off
node,10786799087,47.1641239,9.4725125,Migros,supermarket,Buchs,Churerstrasse,10,9470,"Mo-Tu,Th 08:00-19:00, We,Fr 08:00-20:00, Sa 08:00-17:00; PH off"
node,10787882859,46.6237528,7.0573013,Migros,supermarket,Bulle,Rue Château d'En-Bas,2,1630,"Mo-Th 08:00-19:00, Fr 08:00-21:00, Sa 08:00-16:00; PH off"
node,10814018168,47.3542123,8.4367367,Migros,supermarket,Birmensdorf (ZH),Zürcherstrasse,15,8903,"Mo-Fr 08:00-20:00, Sa 08:00-18:00; PH off"
node,10814018169,47.3538566,8.4367165,Coop,supermarket,Birmensdorf (ZH),Zürcherstrasse,9,8903,Mo-Fr 08:00-20:00; Sa 8:00 - 18:00
node,10982669725,47.349781899999996,8.25869,ALDI,supermarket,Villmergen,Grenzweg,3,5612,Mo-Sa 07:30-20:00
node,11025130806,47.0593006,7.6206969,Denner,supermarket,Burgdorf,Lyssachstrasse,27,3400,Mo-We 08:00-19:00; Th 08:00-20:00; Fr 08:00-21:00; Sa 07:30-17:00; PH off
node,11049758254,47.3383269,8.520261,Spar,supermarket,Zürich,Spinnereiplatz,4,8041,Mo-Sa 07:00 - 22:00
